{"type": "FeatureCollection", "features": [{"type": "Feature", "properties": {"site_no": 23302.0, "id": "TX15", "name": "BEGGS RANCH/ALEDO/", "type": "A", "use": "PR", "medical": false, "elev_ft": 1060.0}, "geometry": {"type": "Point", "coordinates": [-97.61280305, 32.75151777]}}, {"type": "Feature", "properties": {"site_no": 23312.01, "id": "6XS2", "name": "LUSCOMBE ACRES", "type": "A", "use": "PR", "medical": false, "elev_ft": 700.0}, "geometry": {"type": "Point", "coordinates": [-97.19857769, 32.34624816]}}, {"type": "Feature", "properties": {"site_no": 23312.03, "id": "TA01", "name": "PHILLIPS FARM", "type": "A", "use": "PR", "medical": false, "elev_ft": 800.0}, "geometry": {"type": "Point", "coordinates": [-97.25029027, 32.34181111]}}, {"type": "Feature", "properties": {"site_no": 23312.05, "id": "12TA", "name": "BALENTINE WOODBINE", "type": "A", "use": "PR", "medical": false, "elev_ft": 694.0}, "geometry": {"type": "Point", "coordinates": [-97.21896961, 32.37780944]}}, {"type": "Feature", "properties": {"site_no": 23317.0, "id": "TE76", "name": "VANCE FLD", "type": "A", "use": "PR", "medical": false, "elev_ft": 907.0}, "geometry": {"type": "Point", "coordinates": [-97.68625555, 33.36845277]}}, {"type": "Feature", "properties": {"site_no": 23317.02, "id": "TT21", "name": "GRANT RANCH", "type": "A", "use": "PR", "medical": false, "elev_ft": 843.0}, "geometry": {"type": "Point", "coordinates": [-97.67104166, 33.28908333]}}, {"type": "Feature", "properties": {"site_no": 23337.9, "id": "88XA", "name": "TOP FUN RANCH", "type": "A", "use": "PR", "medical": false, "elev_ft": 577.0}, "geometry": {"type": "Point", "coordinates": [-96.48022222, 33.33744444]}}, {"type": "Feature", "properties": {"site_no": 23337.91, "id": "TT47", "name": "ADAMS FLD", "type": "A", "use": "PR", "medical": false, "elev_ft": 673.0}, "geometry": {"type": "Point", "coordinates": [-96.49916805, 33.38608333]}}, {"type": "Feature", "properties": {"site_no": 23348.0, "id": "TX22", "name": "LEROUX", "type": "A", "use": "PR", "medical": false, "elev_ft": 670.0}, "geometry": {"type": "Point", "coordinates": [-97.15570416, 33.10219591]}}, {"type": "Feature", "properties": {"site_no": 23352.1, "id": "GKY", "name": "ARLINGTON MUNI", "type": "A", "use": "PU", "medical": false, "elev_ft": 628.3}, "geometry": {"type": "Point", "coordinates": [-97.09428055, 32.66387111]}}, {"type": "Feature", "properties": {"site_no": 23363.1, "id": "F44", "name": "ATHENS MUNI", "type": "A", "use": "PU", "medical": false, "elev_ft": 444.1}, "geometry": {"type": "Point", "coordinates": [-95.82835305, 32.16384777]}}, {"type": "Feature", "properties": {"site_no": 23368.0, "id": "XS60", "name": "MUSTANG COMMUNITY AIRFIELD", "type": "A", "use": "PR", "medical": false, "elev_ft": 605.0}, "geometry": {"type": "Point", "coordinates": [-96.90600305, 33.31842111]}}, {"type": "Feature", "properties": {"site_no": 23368.02, "id": "06XS", "name": "CAMPBELL FLD", "type": "A", "use": "PR", "medical": false, "elev_ft": 546.0}, "geometry": {"type": "Point", "coordinates": [-97.04416666, 33.32472222]}}, {"type": "Feature", "properties": {"site_no": 23368.04, "id": "5XA9", "name": "VENABLE AIRPARK", "type": "A", "use": "PR", "medical": false, "elev_ft": 638.0}, "geometry": {"type": "Point", "coordinates": [-96.99654444, 33.33829444]}}, {"type": "Feature", "properties": {"site_no": 23368.05, "id": "8XA6", "name": "BLACKJACK FLD", "type": "A", "use": "PR", "medical": false, "elev_ft": 680.0}, "geometry": {"type": "Point", "coordinates": [-96.98, 33.31705555]}}, {"type": "Feature", "properties": {"site_no": 23382.03, "id": "73TE", "name": "MOORE PVT", "type": "A", "use": "PR", "medical": false, "elev_ft": 670.0}, "geometry": {"type": "Point", "coordinates": [-97.55833333, 32.925]}}, {"type": "Feature", "properties": {"site_no": 23404.0, "id": "TX29", "name": "FLYING O", "type": "A", "use": "PR", "medical": false, "elev_ft": 490.0}, "geometry": {"type": "Point", "coordinates": [-96.70443638, 32.28903444]}}, {"type": "Feature", "properties": {"site_no": 23420.5, "id": "XA09", "name": "MENARD", "type": "A", "use": "PR", "medical": false, "elev_ft": 1055.0}, "geometry": {"type": "Point", "coordinates": [-98.06111111, 33.58194444]}}, {"type": "Feature", "properties": {"site_no": 23420.51, "id": "8XS2", "name": "AYERS FLD", "type": "A", "use": "PR", "medical": false, "elev_ft": 1010.0}, "geometry": {"type": "Point", "coordinates": [-98.11446666, 33.57016666]}}, {"type": "Feature", "properties": {"site_no": 23421.02, "id": "99TE", "name": "PRITCHARD", "type": "A", "use": "PR", "medical": false, "elev_ft": 800.0}, "geometry": {"type": "Point", "coordinates": [-96.41555555, 33.60583333]}}, {"type": "Feature", "properties": {"site_no": 23421.06, "id": "65TE", "name": "WINDWOOD FARM", "type": "A", "use": "PR", "medical": false, "elev_ft": 778.0}, "geometry": {"type": "Point", "coordinates": [-96.39716666, 33.56816666]}}, {"type": "Feature", "properties": {"site_no": 23445.16, "id": "4TE1", "name": "POLYANNA RANCH", "type": "A", "use": "PR", "medical": false, "elev_ft": 570.0}, "geometry": {"type": "Point", "coordinates": [-96.71027777, 32.07944444]}}, {"type": "Feature", "properties": {"site_no": 23447.0, "id": "70TE", "name": "CLAASSEN", "type": "A", "use": "PR", "medical": false, "elev_ft": 615.0}, "geometry": {"type": "Point", "coordinates": [-96.32405833, 33.32166666]}}, {"type": "Feature", "properties": {"site_no": 23447.2, "id": "99XS", "name": "BLUE RIDGE", "type": "A", "use": "PR", "medical": false, "elev_ft": 639.0}, "geometry": {"type": "Point", "coordinates": [-96.44688888, 33.29401388]}}, {"type": "Feature", "properties": {"site_no": 23448.0, "id": "05TX", "name": "CIRCLE 'A' RANCH", "type": "A", "use": "PR", "medical": false, "elev_ft": 608.0}, "geometry": {"type": "Point", "coordinates": [-97.40416666, 32.12916666]}}, {"type": "Feature", "properties": {"site_no": 23448.6, "id": "87TX", "name": "FAINTING GOAT", "type": "A", "use": "PR", "medical": false, "elev_ft": 690.0}, "geometry": {"type": "Point", "coordinates": [-97.35618055, 32.11058611]}}, {"type": "Feature", "properties": {"site_no": 23452.0, "id": "T38", "name": "BAR V K", "type": "A", "use": "PU", "medical": false, "elev_ft": 765.0}, "geometry": {"type": "Point", "coordinates": [-97.24347222, 33.37625]}}, {"type": "Feature", "properties": {"site_no": 23454.0, "id": "F00", "name": "JONES FLD", "type": "A", "use": "PU", "medical": false, "elev_ft": 618.2}, "geometry": {"type": "Point", "coordinates": [-96.179325, 33.61309166]}}, {"type": "Feature", "properties": {"site_no": 23469.2, "id": "0F2", "name": "BOWIE MUNI", "type": "A", "use": "PU", "medical": false, "elev_ft": 1100.5}, "geometry": {"type": "Point", "coordinates": [-97.77555555, 33.60166666]}}, {"type": "Feature", "properties": {"site_no": 23469.21, "id": "1XA1", "name": "SKY ACRES", "type": "A", "use": "PR", "medical": false, "elev_ft": 1070.0}, "geometry": {"type": "Point", "coordinates": [-97.829, 33.64766666]}}, {"type": "Feature", "properties": {"site_no": 23469.77, "id": "TA87", "name": "CARTER-NORMAN", "type": "A", "use": "PR", "medical": false, "elev_ft": 737.0}, "geometry": {"type": "Point", "coordinates": [-97.54810833, 33.10745]}}, {"type": "Feature", "properties": {"site_no": 23469.78, "id": "6TS2", "name": "DAUENHAUER FLD", "type": "A", "use": "PR", "medical": false, "elev_ft": 906.0}, "geometry": {"type": "Point", "coordinates": [-97.635, 33.01583333]}}, {"type": "Feature", "properties": {"site_no": 23486.04, "id": "3TA7", "name": "JIM SEARS", "type": "A", "use": "PR", "medical": false, "elev_ft": 900.0}, "geometry": {"type": "Point", "coordinates": [-97.80447805, 33.14372833]}}, {"type": "Feature", "properties": {"site_no": 23486.1, "id": "XBP", "name": "BRIDGEPORT MUNI", "type": "A", "use": "PU", "medical": false, "elev_ft": 863.7}, "geometry": {"type": "Point", "coordinates": [-97.82842713, 33.17395972]}}, {"type": "Feature", "properties": {"site_no": 23488.9, "id": "TA51", "name": "EAGLE", "type": "A", "use": "PR", "medical": false, "elev_ft": 885.0}, "geometry": {"type": "Point", "coordinates": [-97.93726055, 32.68040972]}}, {"type": "Feature", "properties": {"site_no": 23513.8, "id": "93XA", "name": "SCOTT RANCH", "type": "A", "use": "PR", "medical": false, "elev_ft": 1069.0}, "geometry": {"type": "Point", "coordinates": [-98.12021111, 33.50959444]}}, {"type": "Feature", "properties": {"site_no": 23518.1, "id": "3TX9", "name": "RAFTER J", "type": "A", "use": "PR", "medical": false, "elev_ft": 710.0}, "geometry": {"type": "Point", "coordinates": [-97.28084777, 32.52763805]}}, {"type": "Feature", "properties": {"site_no": 23524.0, "id": "08TS", "name": "FLYING G RANCH", "type": "A", "use": "PR", "medical": false, "elev_ft": 664.0}, "geometry": {"type": "Point", "coordinates": [-97.01060833, 32.02933888]}}, {"type": "Feature", "properties": {"site_no": 23525.0, "id": "7F3", "name": "CADDO MILLS MUNI", "type": "A", "use": "PU", "medical": false, "elev_ft": 541.6}, "geometry": {"type": "Point", "coordinates": [-96.24313888, 33.03622222]}}, {"type": "Feature", "properties": {"site_no": 23525.1, "id": "18TX", "name": "FLYING 'T' RANCH", "type": "A", "use": "PR", "medical": false, "elev_ft": 545.0}, "geometry": {"type": "Point", "coordinates": [-96.22805555, 32.9525]}}, {"type": "Feature", "properties": {"site_no": 23525.11, "id": "XA33", "name": "THORNY WOODS", "type": "A", "use": "PR", "medical": false, "elev_ft": 540.0}, "geometry": {"type": "Point", "coordinates": [-96.26442222, 32.95870277]}}, {"type": "Feature", "properties": {"site_no": 23543.0, "id": "TS11", "name": "GLENMAR", "type": "A", "use": "PR", "medical": false, "elev_ft": 531.0}, "geometry": {"type": "Point", "coordinates": [-95.92996666, 33.10705972]}}, {"type": "Feature", "properties": {"site_no": 23543.01, "id": "38TT", "name": "OLYMPUS", "type": "A", "use": "PR", "medical": false, "elev_ft": 613.0}, "geometry": {"type": "Point", "coordinates": [-95.98037222, 33.16781944]}}, {"type": "Feature", "properties": {"site_no": 23548.51, "id": "TA86", "name": "DENNIS'S FLYING FARM", "type": "A", "use": "PR", "medical": false, "elev_ft": 500.0}, "geometry": {"type": "Point", "coordinates": [-95.93496722, 32.60596638]}}, {"type": "Feature", "properties": {"site_no": 23548.52, "id": "TX43", "name": "GOODE FLD", "type": "A", "use": "PR", "medical": false, "elev_ft": 445.0}, "geometry": {"type": "Point", "coordinates": [-96.00274666, 32.50986]}}, {"type": "Feature", "properties": {"site_no": 23548.53, "id": "1TA7", "name": "THOMPSON FLD", "type": "A", "use": "PR", "medical": false, "elev_ft": 518.0}, "geometry": {"type": "Point", "coordinates": [-95.86810416, 32.61583333]}}, {"type": "Feature", "properties": {"site_no": 23548.54, "id": "91TA", "name": "RHINES ROOST", "type": "A", "use": "PR", "medical": false, "elev_ft": 540.0}, "geometry": {"type": "Point", "coordinates": [-95.91885555, 32.44597222]}}, {"type": "Feature", "properties": {"site_no": 23548.56, "id": "80XA", "name": "KNIGHT TROW RANCH", "type": "A", "use": "PR", "medical": false, "elev_ft": 505.0}, "geometry": {"type": "Point", "coordinates": [-95.954513, 32.487519]}}, {"type": "Feature", "properties": {"site_no": 23548.57, "id": "TT73", "name": "VOGT'S VISTA", "type": "A", "use": "PR", "medical": false, "elev_ft": 473.0}, "geometry": {"type": "Point", "coordinates": [-95.947774, 32.54158944]}}, {"type": "Feature", "properties": {"site_no": 23575.61, "id": "79TS", "name": "TALLOWS FLD", "type": "A", "use": "PR", "medical": false, "elev_ft": 729.0}, "geometry": {"type": "Point", "coordinates": [-96.74721777, 33.30428083]}}, {"type": "Feature", "properties": {"site_no": 23575.64, "id": "T80", "name": "BISHOP'S LANDING", "type": "A", "use": "PU", "medical": false, "elev_ft": 750.0}, "geometry": {"type": "Point", "coordinates": [-96.72893611, 33.37652083]}}, {"type": "Feature", "properties": {"site_no": 23577.0, "id": "9S1", "name": "FOUR WINDS", "type": "A", "use": "PU", "medical": false, "elev_ft": 790.0}, "geometry": {"type": "Point", "coordinates": [-96.75469444, 33.36827638]}}, {"type": "Feature", "properties": {"site_no": 23587.0, "id": "1XA8", "name": "HACKBERRY", "type": "A", "use": "PR", "medical": false, "elev_ft": 433.0}, "geometry": {"type": "Point", "coordinates": [-96.39751111, 32.23250555]}}, {"type": "Feature", "properties": {"site_no": 23591.0, "id": "XA07", "name": "SPECTRE FLD", "type": "A", "use": "PR", "medical": false, "elev_ft": 835.0}, "geometry": {"type": "Point", "coordinates": [-97.71666666, 33.275]}}, {"type": "Feature", "properties": {"site_no": 23591.01, "id": "69XA", "name": "RICHEY AIRFIELD", "type": "A", "use": "PR", "medical": false, "elev_ft": 950.0}, "geometry": {"type": "Point", "coordinates": [-97.77620555, 33.34995555]}}, {"type": "Feature", "properties": {"site_no": 23595.5, "id": "20XS", "name": "KLUTTS FLD", "type": "A", "use": "PR", "medical": false, "elev_ft": 495.0}, "geometry": {"type": "Point", "coordinates": [-96.37873055, 32.83528333]}}, {"type": "Feature", "properties": {"site_no": 23617.0, "id": "CPT", "name": "CLEBURNE RGNL", "type": "A", "use": "PU", "medical": false, "elev_ft": 854.2}, "geometry": {"type": "Point", "coordinates": [-97.43375, 32.35375]}}, {"type": "Feature", "properties": {"site_no": 23617.01, "id": "TX46", "name": "BLACKWOOD AIRPARK", "type": "A", "use": "PR", "medical": false, "elev_ft": 820.0}, "geometry": {"type": "Point", "coordinates": [-97.38723944, 32.40958611]}}, {"type": "Feature", "properties": {"site_no": 23617.7, "id": "13TX", "name": "GOATNECK", "type": "A", "use": "PR", "medical": false, "elev_ft": 575.0}, "geometry": {"type": "Point", "coordinates": [-97.55922222, 32.15338888]}}, {"type": "Feature", "properties": {"site_no": 23617.71, "id": "39TT", "name": "SUGAR CREEK FLD", "type": "A", "use": "PR", "medical": false, "elev_ft": 887.0}, "geometry": {"type": "Point", "coordinates": [-97.30707805, 32.3602275]}}, {"type": "Feature", "properties": {"site_no": 23636.9, "id": "T32", "name": "SUDDEN STOP", "type": "A", "use": "PU", "medical": false, "elev_ft": 720.0}, "geometry": {"type": "Point", "coordinates": [-96.90722472, 33.57149777]}}, {"type": "Feature", "properties": {"site_no": 23636.94, "id": "2XA4", "name": "FLYING S RANCH", "type": "A", "use": "PR", "medical": false, "elev_ft": 730.0}, "geometry": {"type": "Point", "coordinates": [-96.80027777, 33.58083333]}}, {"type": "Feature", "properties": {"site_no": 23646.1, "id": "2F7", "name": "COMMERCE MUNI", "type": "A", "use": "PU", "medical": false, "elev_ft": 515.5}, "geometry": {"type": "Point", "coordinates": [-95.89641666, 33.29286111]}}, {"type": "Feature", "properties": {"site_no": 23663.2, "id": "TX51", "name": "SMITH", "type": "A", "use": "PR", "medical": false, "elev_ft": 405.0}, "geometry": {"type": "Point", "coordinates": [-96.32942361, 32.20014916]}}, {"type": "Feature", "properties": {"site_no": 23663.3, "id": "6TX6", "name": "JTJ RANCH", "type": "A", "use": "PR", "medical": false, "elev_ft": 350.0}, "geometry": {"type": "Point", "coordinates": [-96.35666666, 32.08255555]}}, {"type": "Feature", "properties": {"site_no": 23663.4, "id": "4XS1", "name": "COYOTE FLD", "type": "A", "use": "PR", "medical": false, "elev_ft": 430.0}, "geometry": {"type": "Point", "coordinates": [-96.52063888, 32.13388888]}}, {"type": "Feature", "properties": {"site_no": 23663.5, "id": "90TE", "name": "THE HOMESTEAD", "type": "A", "use": "PR", "medical": false, "elev_ft": 398.0}, "geometry": {"type": "Point", "coordinates": [-96.43859166, 32.19570277]}}, {"type": "Feature", "properties": {"site_no": 23664.01, "id": "TA05", "name": "ANXIETY AERODROME", "type": "A", "use": "PR", "medical": false, "elev_ft": 430.0}, "geometry": {"type": "Point", "coordinates": [-96.53165222, 32.03765416]}}, {"type": "Feature", "properties": {"site_no": 23672.8, "id": "TE52", "name": "CHIGGER FLD", "type": "A", "use": "PR", "medical": false, "elev_ft": 950.0}, "geometry": {"type": "Point", "coordinates": [-97.58863333, 32.53596944]}}, {"type": "Feature", "properties": {"site_no": 23672.81, "id": "3XA8", "name": "CHICKEN STRIP", "type": "A", "use": "PR", "medical": false, "elev_ft": 1070.0}, "geometry": {"type": "Point", "coordinates": [-97.59475833, 32.51373055]}}, {"type": "Feature", "properties": {"site_no": 23676.81, "id": "7TS4", "name": "SANCTUARY RANCH", "type": "A", "use": "PR", "medical": false, "elev_ft": 264.0}, "geometry": {"type": "Point", "coordinates": [-96.04597222, 32.05616666]}}, {"type": "Feature", "properties": {"site_no": 23692.0, "id": "TA06", "name": "MORRIS MANOR", "type": "A", "use": "PR", "medical": false, "elev_ft": 610.0}, "geometry": {"type": "Point", "coordinates": [-95.80579583, 33.16122472]}}, {"type": "Feature", "properties": {"site_no": 23692.01, "id": "02TT", "name": "LUNACITY RANCH AIRFIELD", "type": "A", "use": "PR", "medical": false, "elev_ft": 568.0}, "geometry": {"type": "Point", "coordinates": [-95.86150738, 33.08272991]}}, {"type": "Feature", "properties": {"site_no": 23710.1, "id": "F69", "name": "AIR PARK-DALLAS", "type": "A", "use": "PU", "medical": false, "elev_ft": 695.0}, "geometry": {"type": "Point", "coordinates": [-96.83694611, 33.02345472]}}, {"type": "Feature", "properties": {"site_no": 23710.12, "id": "1F7", "name": "AIRPARK EAST", "type": "A", "use": "PU", "medical": false, "elev_ft": 500.0}, "geometry": {"type": "Point", "coordinates": [-96.35203255, 32.81293338]}}, {"type": "Feature", "properties": {"site_no": 23710.2, "id": "RBD", "name": "DALLAS EXEC", "type": "A", "use": "PU", "medical": false, "elev_ft": 660.5}, "geometry": {"type": "Point", "coordinates": [-96.86877777, 32.68130555]}}, {"type": "Feature", "properties": {"site_no": 23710.3, "id": "ADS", "name": "ADDISON", "type": "A", "use": "PU", "medical": false, "elev_ft": 644.2}, "geometry": {"type": "Point", "coordinates": [-96.83645305, 32.96855416]}}, {"type": "Feature", "properties": {"site_no": 23710.38, "id": "TKI", "name": "MCKINNEY NTL", "type": "A", "use": "PU", "medical": false, "elev_ft": 588.9}, "geometry": {"type": "Point", "coordinates": [-96.58876666, 33.17706527]}}, {"type": "Feature", "properties": {"site_no": 23710.6, "id": "DFW", "name": "DALLAS-FORT WORTH INTL", "type": "A", "use": "PU", "medical": false, "elev_ft": 606.4}, "geometry": {"type": "Point", "coordinates": [-97.03769472, 32.89723305]}}, {"type": "Feature", "properties": {"site_no": 23713.0, "id": "DAL", "name": "DALLAS LOVE FLD", "type": "A", "use": "PU", "medical": false, "elev_ft": 486.9}, "geometry": {"type": "Point", "coordinates": [-96.85087666, 32.84594472]}}, {"type": "Feature", "properties": {"site_no": 23726.0, "id": "LUD", "name": "DECATUR MUNI", "type": "A", "use": "PU", "medical": false, "elev_ft": 1046.7}, "geometry": {"type": "Point", "coordinates": [-97.5805, 33.25425]}}, {"type": "Feature", "properties": {"site_no": 23726.11, "id": "09T", "name": "LAZY G BAR RANCH", "type": "A", "use": "PU", "medical": false, "elev_ft": 931.0}, "geometry": {"type": "Point", "coordinates": [-97.49669333, 33.28132069]}}, {"type": "Feature", "properties": {"site_no": 23726.12, "id": "TX64", "name": "LAZY 9 RANCH", "type": "A", "use": "PR", "medical": false, "elev_ft": 1020.0}, "geometry": {"type": "Point", "coordinates": [-97.52724861, 33.29928194]}}, {"type": "Feature", "properties": {"site_no": 23726.13, "id": "76T", "name": "BISHOP", "type": "A", "use": "PU", "medical": false, "elev_ft": 888.0}, "geometry": {"type": "Point", "coordinates": [-97.45186111, 33.26916666]}}, {"type": "Feature", "properties": {"site_no": 23726.14, "id": "58T", "name": "HERITAGE CREEK AIRSTRIP", "type": "A", "use": "PU", "medical": false, "elev_ft": 883.0}, "geometry": {"type": "Point", "coordinates": [-97.47988888, 33.16602777]}}, {"type": "Feature", "properties": {"site_no": 23726.15, "id": "XA34", "name": "ALLISON FARM", "type": "A", "use": "PR", "medical": false, "elev_ft": 850.0}, "geometry": {"type": "Point", "coordinates": [-97.428, 33.24166666]}}, {"type": "Feature", "properties": {"site_no": 23726.16, "id": "XA98", "name": "JBJ RANCH", "type": "A", "use": "PR", "medical": false, "elev_ft": 890.0}, "geometry": {"type": "Point", "coordinates": [-97.45806666, 33.3027]}}, {"type": "Feature", "properties": {"site_no": 23726.17, "id": "XA99", "name": "FLAT BUSH", "type": "A", "use": "PR", "medical": false, "elev_ft": 862.0}, "geometry": {"type": "Point", "coordinates": [-97.60705, 33.13438333]}}, {"type": "Feature", "properties": {"site_no": 23726.21, "id": "35X", "name": "TRIPLE-ACE FLD", "type": "A", "use": "PU", "medical": false, "elev_ft": 1010.0}, "geometry": {"type": "Point", "coordinates": [-97.55355555, 33.25185555]}}, {"type": "Feature", "properties": {"site_no": 23726.22, "id": "62TS", "name": "FLACK FIELD", "type": "A", "use": "PR", "medical": false, "elev_ft": 778.0}, "geometry": {"type": "Point", "coordinates": [-97.52805277, 33.11345833]}}, {"type": "Feature", "properties": {"site_no": 23726.24, "id": "67TT", "name": "FLECK", "type": "A", "use": "PR", "medical": false, "elev_ft": 883.0}, "geometry": {"type": "Point", "coordinates": [-97.44460972, 33.34889305]}}, {"type": "Feature", "properties": {"site_no": 23749.0, "id": "3XS0", "name": "HARTLEE FLD", "type": "A", "use": "PR", "medical": false, "elev_ft": 588.0}, "geometry": {"type": "Point", "coordinates": [-97.07112138, 33.26845111]}}, {"type": "Feature", "properties": {"site_no": 23749.01, "id": "4TA1", "name": "WARSCHUN RANCH", "type": "A", "use": "PR", "medical": false, "elev_ft": 600.0}, "geometry": {"type": "Point", "coordinates": [-97.11140055, 33.30289444]}}, {"type": "Feature", "properties": {"site_no": 23749.03, "id": "TE81", "name": "SMITHER FLD", "type": "A", "use": "PR", "medical": false, "elev_ft": 655.0}, "geometry": {"type": "Point", "coordinates": [-97.09277777, 33.30972222]}}, {"type": "Feature", "properties": {"site_no": 23750.0, "id": "DTO", "name": "DENTON ENTERPRISE", "type": "A", "use": "PU", "medical": false, "elev_ft": 642.8}, "geometry": {"type": "Point", "coordinates": [-97.1990975, 33.20196055]}}, {"type": "Feature", "properties": {"site_no": 23771.0, "id": "X65", "name": "TXAEROSPORT AERODROME", "type": "A", "use": "PU", "medical": false, "elev_ft": 855.0}, "geometry": {"type": "Point", "coordinates": [-96.68041711, 33.53628963]}}, {"type": "Feature", "properties": {"site_no": 23798.1, "id": "TX68", "name": "PARKER PLACE", "type": "A", "use": "PR", "medical": false, "elev_ft": 620.0}, "geometry": {"type": "Point", "coordinates": [-96.27664805, 33.59177222]}}, {"type": "Feature", "properties": {"site_no": 23836.1, "id": "F41", "name": "ENNIS MUNI", "type": "A", "use": "PU", "medical": false, "elev_ft": 500.3}, "geometry": {"type": "Point", "coordinates": [-96.66389916, 32.32969805]}}, {"type": "Feature", "properties": {"site_no": 23836.11, "id": "TE40", "name": "B.S. AIR RANCH", "type": "A", "use": "PR", "medical": false, "elev_ft": 479.6}, "geometry": {"type": "Point", "coordinates": [-96.61095036, 32.40776552]}}, {"type": "Feature", "properties": {"site_no": 23838.0, "id": "TX94", "name": "FLYING D RANCH", "type": "A", "use": "PR", "medical": false, "elev_ft": 882.0}, "geometry": {"type": "Point", "coordinates": [-97.2755793, 33.45268333]}}, {"type": "Feature", "properties": {"site_no": 23838.01, "id": "TE39", "name": "BUCKER FLD", "type": "A", "use": "PR", "medical": false, "elev_ft": 887.0}, "geometry": {"type": "Point", "coordinates": [-97.27237777, 33.44227222]}}, {"type": "Feature", "properties": {"site_no": 23838.02, "id": "TX39", "name": "RUBY FLD", "type": "A", "use": "PR", "medical": false, "elev_ft": 650.0}, "geometry": {"type": "Point", "coordinates": [-97.25064444, 33.47723888]}}, {"type": "Feature", "properties": {"site_no": 23843.7, "id": "00TS", "name": "ALPINE RANGE", "type": "A", "use": "PR", "medical": false, "elev_ft": 670.0}, "geometry": {"type": "Point", "coordinates": [-97.24232222, 32.60793888]}}, {"type": "Feature", "properties": {"site_no": 23852.9, "id": "8TA5", "name": "SHORT STOP", "type": "A", "use": "PR", "medical": false, "elev_ft": 640.0}, "geometry": {"type": "Point", "coordinates": [-96.32220277, 33.16317138]}}, {"type": "Feature", "properties": {"site_no": 23853.92, "id": "0TX7", "name": "TWISTED JS", "type": "A", "use": "PR", "medical": false, "elev_ft": 597.0}, "geometry": {"type": "Point", "coordinates": [-96.39002777, 33.09294444]}}, {"type": "Feature", "properties": {"site_no": 23868.611, "id": "0TX5", "name": "SHILOH", "type": "A", "use": "PR", "medical": false, "elev_ft": 635.0}, "geometry": {"type": "Point", "coordinates": [-97.11973361, 33.02401166]}}, {"type": "Feature", "properties": {"site_no": 23873.5, "id": "64XA", "name": "BIRD DOG LANDING", "type": "A", "use": "PR", "medical": false, "elev_ft": 960.0}, "geometry": {"type": "Point", "coordinates": [-97.54974444, 33.58198055]}}, {"type": "Feature", "properties": {"site_no": 23873.71, "id": "TA18", "name": "SUNSET", "type": "A", "use": "PR", "medical": false, "elev_ft": 444.0}, "geometry": {"type": "Point", "coordinates": [-96.47943138, 32.70707472]}}, {"type": "Feature", "properties": {"site_no": 23887.0, "id": "FTW", "name": "FORT WORTH MEACHAM INTL", "type": "A", "use": "PU", "medical": false, "elev_ft": 710.1}, "geometry": {"type": "Point", "coordinates": [-97.36245, 32.81977027]}}, {"type": "Feature", "properties": {"site_no": 23887.1, "id": "TS00", "name": "FULLER", "type": "A", "use": "PR", "medical": false, "elev_ft": 490.0}, "geometry": {"type": "Point", "coordinates": [-97.18084555, 32.78818527]}}, {"type": "Feature", "properties": {"site_no": 23887.11, "id": "50F", "name": "BOURLAND FLD", "type": "A", "use": "PU", "medical": false, "elev_ft": 873.2}, "geometry": {"type": "Point", "coordinates": [-97.59077777, 32.58183333]}}, {"type": "Feature", "properties": {"site_no": 23887.2, "id": "4T2", "name": "KENNETH COPELAND", "type": "A", "use": "PU", "medical": false, "elev_ft": 693.0}, "geometry": {"type": "Point", "coordinates": [-97.49229366, 32.97763172]}}, {"type": "Feature", "properties": {"site_no": 23887.3, "id": "T67", "name": "HICKS AIRFIELD", "type": "A", "use": "PU", "medical": false, "elev_ft": 855.0}, "geometry": {"type": "Point", "coordinates": [-97.41168583, 32.93123666]}}, {"type": "Feature", "properties": {"site_no": 23887.4, "id": "9F9", "name": "SYCAMORE STRIP", "type": "A", "use": "PU", "medical": false, "elev_ft": 762.0}, "geometry": {"type": "Point", "coordinates": [-97.35400694, 32.62702777]}}, {"type": "Feature", "properties": {"site_no": 23887.7, "id": "2TE2", "name": "FLYING OAKS", "type": "A", "use": "PR", "medical": false, "elev_ft": 720.0}, "geometry": {"type": "Point", "coordinates": [-97.53494305, 32.82926666]}}, {"type": "Feature", "properties": {"site_no": 23895.0, "id": "NFW", "name": "FORT WORTH NAS JRB (CARSWELL FLD)", "type": "A", "use": "PR", "medical": false, "elev_ft": 650.0}, "geometry": {"type": "Point", "coordinates": [-97.44153472, 32.76918611]}}, {"type": "Feature", "properties": {"site_no": 23895.11, "id": "FWS", "name": "FORT WORTH SPINKS", "type": "A", "use": "PU", "medical": false, "elev_ft": 700.4}, "geometry": {"type": "Point", "coordinates": [-97.30843944, 32.56513361]}}, {"type": "Feature", "properties": {"site_no": 23895.3, "id": "AFW", "name": "PEROT FLD/FORT WORTH ALLIANCE", "type": "A", "use": "PU", "medical": false, "elev_ft": 723.2}, "geometry": {"type": "Point", "coordinates": [-97.31942944, 32.99030666]}}, {"type": "Feature", "properties": {"site_no": 23908.845, "id": "TT66", "name": "ROWDY T RANCH", "type": "A", "use": "PR", "medical": false, "elev_ft": 538.0}, "geometry": {"type": "Point", "coordinates": [-96.80851944, 32.10812222]}}, {"type": "Feature", "properties": {"site_no": 23911.0, "id": "GLE", "name": "GAINESVILLE MUNI", "type": "A", "use": "PU", "medical": false, "elev_ft": 845.5}, "geometry": {"type": "Point", "coordinates": [-97.19727777, 33.65219444]}}, {"type": "Feature", "properties": {"site_no": 23911.03, "id": "XS62", "name": "STAHL", "type": "A", "use": "PR", "medical": false, "elev_ft": 820.0}, "geometry": {"type": "Point", "coordinates": [-97.19057777, 33.56894166]}}, {"type": "Feature", "properties": {"site_no": 23913.0, "id": "12TT", "name": "D AN P FARM", "type": "A", "use": "PR", "medical": false, "elev_ft": 771.0}, "geometry": {"type": "Point", "coordinates": [-97.10076388, 33.59374722]}}, {"type": "Feature", "properties": {"site_no": 23913.01, "id": "07TE", "name": "PEAK 7 RANCH", "type": "A", "use": "PR", "medical": false, "elev_ft": 727.0}, "geometry": {"type": "Point", "coordinates": [-97.03158708, 33.54407611]}}, {"type": "Feature", "properties": {"site_no": 23948.1, "id": "TA35", "name": "RANCHO HIELO BRAZOS", "type": "A", "use": "PR", "medical": false, "elev_ft": 928.0}, "geometry": {"type": "Point", "coordinates": [-97.84234944, 32.20047888]}}, {"type": "Feature", "properties": {"site_no": 23948.2, "id": "09TE", "name": "RUNNING M RANCH", "type": "A", "use": "PR", "medical": false, "elev_ft": 787.0}, "geometry": {"type": "Point", "coordinates": [-97.86697611, 32.26680777]}}, {"type": "Feature", "properties": {"site_no": 23948.21, "id": "TX93", "name": "WRIGHT RANCH", "type": "A", "use": "PR", "medical": false, "elev_ft": 900.0}, "geometry": {"type": "Point", "coordinates": [-97.83364111, 32.16681083]}}, {"type": "Feature", "properties": {"site_no": 23948.22, "id": "8TS7", "name": "WYATT 3-RIVERS", "type": "A", "use": "PR", "medical": false, "elev_ft": 615.0}, "geometry": {"type": "Point", "coordinates": [-97.72613861, 32.24486527]}}, {"type": "Feature", "properties": {"site_no": 23948.24, "id": "41TA", "name": "CIRCLE P RANCH", "type": "A", "use": "PR", "medical": false, "elev_ft": 800.0}, "geometry": {"type": "Point", "coordinates": [-97.87063888, 32.23731944]}}, {"type": "Feature", "properties": {"site_no": 23948.25, "id": "TS61", "name": "LITTLE 'L' RANCH", "type": "A", "use": "PR", "medical": false, "elev_ft": 585.0}, "geometry": {"type": "Point", "coordinates": [-97.64216666, 32.21166666]}}, {"type": "Feature", "properties": {"site_no": 23948.26, "id": "XA04", "name": "CIRCLE EIGHT RANCH", "type": "A", "use": "PR", "medical": false, "elev_ft": 800.0}, "geometry": {"type": "Point", "coordinates": [-97.89964377, 32.23761861]}}, {"type": "Feature", "properties": {"site_no": 23949.51, "id": "59TX", "name": "BENJAMIN FRANKLIN", "type": "A", "use": "PR", "medical": false, "elev_ft": 990.0}, "geometry": {"type": "Point", "coordinates": [-97.49027777, 32.48722222]}}, {"type": "Feature", "properties": {"site_no": 23949.54, "id": "20T", "name": "ARESTI AERODROME", "type": "A", "use": "PU", "medical": false, "elev_ft": 985.0}, "geometry": {"type": "Point", "coordinates": [-97.56030055, 32.47069472]}}, {"type": "Feature", "properties": {"site_no": 23949.55, "id": "35TT", "name": "HAWKINS FLD", "type": "A", "use": "PR", "medical": false, "elev_ft": 978.0}, "geometry": {"type": "Point", "coordinates": [-97.50166111, 32.47353888]}}, {"type": "Feature", "properties": {"site_no": 23965.1, "id": "GDJ", "name": "GRANBURY RGNL", "type": "A", "use": "PU", "medical": false, "elev_ft": 835.2}, "geometry": {"type": "Point", "coordinates": [-97.82137277, 32.44307222]}}, {"type": "Feature", "properties": {"site_no": 23965.12, "id": "TS89", "name": "PARKER", "type": "A", "use": "PR", "medical": false, "elev_ft": 925.0}, "geometry": {"type": "Point", "coordinates": [-97.80872222, 32.35113888]}}, {"type": "Feature", "properties": {"site_no": 23965.14, "id": "66TE", "name": "THE LANDINGS", "type": "A", "use": "PR", "medical": false, "elev_ft": 708.0}, "geometry": {"type": "Point", "coordinates": [-97.64501111, 32.36552083]}}, {"type": "Feature", "properties": {"site_no": 23965.3, "id": "0TX0", "name": "NASSAU BAY", "type": "A", "use": "PR", "medical": false, "elev_ft": 714.0}, "geometry": {"type": "Point", "coordinates": [-97.712805, 32.41958361]}}, {"type": "Feature", "properties": {"site_no": 23965.31, "id": "0TX1", "name": "PECAN PLANTATION", "type": "A", "use": "PR", "medical": false, "elev_ft": 712.0}, "geometry": {"type": "Point", "coordinates": [-97.67615, 32.35368888]}}, {"type": "Feature", "properties": {"site_no": 23965.32, "id": "TA90", "name": "DOUBLEWIDE RANCH", "type": "A", "use": "PR", "medical": false, "elev_ft": 1041.0}, "geometry": {"type": "Point", "coordinates": [-97.8154875, 32.379356]}}, {"type": "Feature", "properties": {"site_no": 23969.01, "id": "GPM", "name": "GRAND PRAIRIE MUNI", "type": "A", "use": "PU", "medical": false, "elev_ft": 590.0}, "geometry": {"type": "Point", "coordinates": [-97.04691666, 32.69877777]}}, {"type": "Feature", "properties": {"site_no": 23973.5, "id": "11TE", "name": "FLYING M RANCH", "type": "A", "use": "PR", "medical": false, "elev_ft": 700.0}, "geometry": {"type": "Point", "coordinates": [-97.204455, 32.30014555]}}, {"type": "Feature", "properties": {"site_no": 23973.51, "id": "3XA0", "name": "DRENNAN", "type": "A", "use": "PR", "medical": false, "elev_ft": 726.0}, "geometry": {"type": "Point", "coordinates": [-97.23111111, 32.31388888]}}, {"type": "Feature", "properties": {"site_no": 23973.52, "id": "XA75", "name": "DOUBLE A", "type": "A", "use": "PR", "medical": false, "elev_ft": 635.0}, "geometry": {"type": "Point", "coordinates": [-97.09966666, 32.324]}}, {"type": "Feature", "properties": {"site_no": 23973.53, "id": "22TA", "name": "PHARMNALL", "type": "A", "use": "PR", "medical": false, "elev_ft": 658.0}, "geometry": {"type": "Point", "coordinates": [-97.14021666, 32.21538055]}}, {"type": "Feature", "properties": {"site_no": 23985.0, "id": "GVT", "name": "MAJORS", "type": "A", "use": "PU", "medical": false, "elev_ft": 534.9}, "geometry": {"type": "Point", "coordinates": [-96.06533333, 33.06783333]}}, {"type": "Feature", "properties": {"site_no": 23985.03, "id": "0TX9", "name": "CARD AERODROME", "type": "A", "use": "PR", "medical": false, "elev_ft": 618.0}, "geometry": {"type": "Point", "coordinates": [-96.11629255, 33.26127041]}}, {"type": "Feature", "properties": {"site_no": 23985.06, "id": "77TA", "name": "SWORD'S LANDING", "type": "A", "use": "PR", "medical": false, "elev_ft": 553.0}, "geometry": {"type": "Point", "coordinates": [-96.01194444, 33.15083333]}}, {"type": "Feature", "properties": {"site_no": 23985.1, "id": "37TS", "name": "JLINN", "type": "A", "use": "PR", "medical": false, "elev_ft": 460.0}, "geometry": {"type": "Point", "coordinates": [-96.03997055, 32.99067416]}}, {"type": "Feature", "properties": {"site_no": 23985.11, "id": "XS14", "name": "WEESE INTL", "type": "A", "use": "PR", "medical": false, "elev_ft": 487.0}, "geometry": {"type": "Point", "coordinates": [-96.07055555, 32.96944444]}}, {"type": "Feature", "properties": {"site_no": 23997.52, "id": "74XA", "name": "GUN BARREL CITY AIRPARK", "type": "A", "use": "PR", "medical": false, "elev_ft": 385.0}, "geometry": {"type": "Point", "coordinates": [-96.14555555, 32.35472222]}}, {"type": "Feature", "properties": {"site_no": 24057.9, "id": "INJ", "name": "HILLSBORO MUNI", "type": "A", "use": "PU", "medical": false, "elev_ft": 685.7}, "geometry": {"type": "Point", "coordinates": [-97.09725, 32.08363888]}}, {"type": "Feature", "properties": {"site_no": 24062.1, "id": "02XA", "name": "JLS FARMS", "type": "A", "use": "PR", "medical": false, "elev_ft": 675.0}, "geometry": {"type": "Point", "coordinates": [-95.88286388, 33.59131944]}}, {"type": "Feature", "properties": {"site_no": 24062.12, "id": "XA81", "name": "HOMERUN", "type": "A", "use": "PR", "medical": false, "elev_ft": 609.0}, "geometry": {"type": "Point", "coordinates": [-95.87622222, 33.64303472]}}, {"type": "Feature", "properties": {"site_no": 24083.0, "id": "1TE8", "name": "KAHUNA BAY", "type": "A", "use": "PR", "medical": false, "elev_ft": 702.0}, "geometry": {"type": "Point", "coordinates": [-96.55769444, 33.549]}}, {"type": "Feature", "properties": {"site_no": 24083.01, "id": "T47", "name": "FINNEY FLD", "type": "A", "use": "PU", "medical": false, "elev_ft": 833.0}, "geometry": {"type": "Point", "coordinates": [-96.64953, 33.535054]}}, {"type": "Feature", "properties": {"site_no": 24131.86, "id": "TE45", "name": "BUFFALO CHIPS AIRPARK", "type": "A", "use": "PR", "medical": false, "elev_ft": 960.0}, "geometry": {"type": "Point", "coordinates": [-97.46529777, 32.46986166]}}, {"type": "Feature", "properties": {"site_no": 24137.611, "id": "16X", "name": "PROPWASH", "type": "A", "use": "PU", "medical": false, "elev_ft": 804.0}, "geometry": {"type": "Point", "coordinates": [-97.35841666, 33.08061111]}}, {"type": "Feature", "properties": {"site_no": 24137.622, "id": "7XA2", "name": "SAGEBRUSH", "type": "A", "use": "PR", "medical": false, "elev_ft": 810.0}, "geometry": {"type": "Point", "coordinates": [-97.37401388, 33.14888333]}}, {"type": "Feature", "properties": {"site_no": 24137.623, "id": "3T6", "name": "CLARK", "type": "A", "use": "PU", "medical": false, "elev_ft": 705.0}, "geometry": {"type": "Point", "coordinates": [-97.29702777, 33.13361111]}}, {"type": "Feature", "properties": {"site_no": 24137.63, "id": "3TX7", "name": "FLYING P", "type": "A", "use": "PR", "medical": false, "elev_ft": 805.0}, "geometry": {"type": "Point", "coordinates": [-97.37111111, 33.14083333]}}, {"type": "Feature", "properties": {"site_no": 24137.65, "id": "2TX7", "name": "JW", "type": "A", "use": "PR", "medical": false, "elev_ft": 875.0}, "geometry": {"type": "Point", "coordinates": [-97.39613138, 33.09456611]}}, {"type": "Feature", "properties": {"site_no": 24137.68, "id": "XA0", "name": "PROSE FLD", "type": "A", "use": "PU", "medical": false, "elev_ft": 685.0}, "geometry": {"type": "Point", "coordinates": [-97.28002777, 33.14816666]}}, {"type": "Feature", "properties": {"site_no": 24137.71, "id": "XA49", "name": "BLUE JAY AIRFIELD", "type": "A", "use": "PR", "medical": false, "elev_ft": 668.0}, "geometry": {"type": "Point", "coordinates": [-97.26787222, 33.09044722]}}, {"type": "Feature", "properties": {"site_no": 24141.01, "id": "TA46", "name": "BAUM", "type": "A", "use": "PR", "medical": false, "elev_ft": 500.0}, "geometry": {"type": "Point", "coordinates": [-96.401095, 32.56263583]}}, {"type": "Feature", "properties": {"site_no": 24141.02, "id": "0TA4", "name": "ERCO FLD", "type": "A", "use": "PR", "medical": false, "elev_ft": 395.0}, "geometry": {"type": "Point", "coordinates": [-96.27053444, 32.49791583]}}, {"type": "Feature", "properties": {"site_no": 24141.03, "id": "XA42", "name": "TALI HOMMA FLD", "type": "A", "use": "PR", "medical": false, "elev_ft": 343.0}, "geometry": {"type": "Point", "coordinates": [-96.38581805, 32.37569722]}}, {"type": "Feature", "properties": {"site_no": 24141.1, "id": "8TS6", "name": "MOORE", "type": "A", "use": "PR", "medical": false, "elev_ft": 418.0}, "geometry": {"type": "Point", "coordinates": [-96.32248083, 32.5331925]}}, {"type": "Feature", "properties": {"site_no": 24146.0, "id": "TX67", "name": "HODGES AIR FLD", "type": "A", "use": "PR", "medical": false, "elev_ft": 910.0}, "geometry": {"type": "Point", "coordinates": [-97.3025, 32.3606]}}, {"type": "Feature", "properties": {"site_no": 24148.54, "id": "4TX2", "name": "STAGE COACH HILLS", "type": "A", "use": "PR", "medical": false, "elev_ft": 684.0}, "geometry": {"type": "Point", "coordinates": [-97.23362583, 32.96679138]}}, {"type": "Feature", "properties": {"site_no": 24148.55, "id": "7TX4", "name": "HILLCREST", "type": "A", "use": "PR", "medical": false, "elev_ft": 710.0}, "geometry": {"type": "Point", "coordinates": [-97.27529361, 32.96679138]}}, {"type": "Feature", "properties": {"site_no": 24155.1, "id": "4TX5", "name": "HANCOCK", "type": "A", "use": "PR", "medical": false, "elev_ft": 305.0}, "geometry": {"type": "Point", "coordinates": [-96.25969916, 32.22987027]}}, {"type": "Feature", "properties": {"site_no": 24177.5, "id": "4TX8", "name": "ADDINGTON FLD", "type": "A", "use": "PR", "medical": false, "elev_ft": 705.0}, "geometry": {"type": "Point", "coordinates": [-97.22390527, 33.24872916]}}, {"type": "Feature", "properties": {"site_no": 24177.51, "id": "2TX8", "name": "EAGLE'S LANDING", "type": "A", "use": "PR", "medical": false, "elev_ft": 930.0}, "geometry": {"type": "Point", "coordinates": [-97.37974361, 33.30817138]}}, {"type": "Feature", "properties": {"site_no": 24177.53, "id": "TA47", "name": "RICHARDS", "type": "A", "use": "PR", "medical": false, "elev_ft": 785.0}, "geometry": {"type": "Point", "coordinates": [-97.245, 33.30138888]}}, {"type": "Feature", "properties": {"site_no": 24177.54, "id": "E58", "name": "BIRD DOG AIRFIELD", "type": "A", "use": "PU", "medical": false, "elev_ft": 895.0}, "geometry": {"type": "Point", "coordinates": [-97.34712777, 33.30645555]}}, {"type": "Feature", "properties": {"site_no": 24177.55, "id": "XA72", "name": "STOCKER", "type": "A", "use": "PR", "medical": false, "elev_ft": 770.0}, "geometry": {"type": "Point", "coordinates": [-97.28944444, 33.27694444]}}, {"type": "Feature", "properties": {"site_no": 24177.56, "id": "85XA", "name": "WINDMILLCREEK", "type": "A", "use": "PR", "medical": false, "elev_ft": 800.0}, "geometry": {"type": "Point", "coordinates": [-97.31116111, 33.30955]}}, {"type": "Feature", "properties": {"site_no": 24180.3, "id": "30F", "name": "LAKEVIEW", "type": "A", "use": "PU", "medical": false, "elev_ft": 535.0}, "geometry": {"type": "Point", "coordinates": [-97.01419444, 33.13138888]}}, {"type": "Feature", "properties": {"site_no": 24180.31, "id": "5TX0", "name": "HIDDEN VALLEY AIRPARK", "type": "A", "use": "PR", "medical": false, "elev_ft": 611.0}, "geometry": {"type": "Point", "coordinates": [-97.05139833, 33.17345305]}}, {"type": "Feature", "properties": {"site_no": 24189.6, "id": "LNC", "name": "LANCASTER RGNL", "type": "A", "use": "PU", "medical": false, "elev_ft": 501.1}, "geometry": {"type": "Point", "coordinates": [-96.71750277, 32.57760416]}}, {"type": "Feature", "properties": {"site_no": 24205.0, "id": "5TX2", "name": "GROVE HILL", "type": "A", "use": "PR", "medical": false, "elev_ft": 721.0}, "geometry": {"type": "Point", "coordinates": [-96.21692194, 33.42233138]}}, {"type": "Feature", "properties": {"site_no": 24205.01, "id": "TE06", "name": "CASEY FLD", "type": "A", "use": "PR", "medical": false, "elev_ft": 670.0}, "geometry": {"type": "Point", "coordinates": [-96.316925, 33.37927722]}}, {"type": "Feature", "properties": {"site_no": 24205.65, "id": "6TA2", "name": "FLYING TIGER FLD", "type": "A", "use": "PR", "medical": false, "elev_ft": 685.0}, "geometry": {"type": "Point", "coordinates": [-96.36222222, 33.37222222]}}, {"type": "Feature", "properties": {"site_no": 24219.6, "id": "7T0", "name": "FREEDOM FLD", "type": "A", "use": "PU", "medical": false, "elev_ft": 885.0}, "geometry": {"type": "Point", "coordinates": [-97.21888888, 33.59361111]}}, {"type": "Feature", "properties": {"site_no": 24248.01, "id": "15TT", "name": "AEROPLEX AIRFIELD", "type": "A", "use": "PR", "medical": false, "elev_ft": 550.0}, "geometry": {"type": "Point", "coordinates": [-96.55168577, 33.11622305]}}, {"type": "Feature", "properties": {"site_no": 24272.05, "id": "XS42", "name": "EMBARCADERO", "type": "A", "use": "PR", "medical": false, "elev_ft": 660.0}, "geometry": {"type": "Point", "coordinates": [-96.51672222, 33.266375]}}, {"type": "Feature", "properties": {"site_no": 24272.11, "id": "TS63", "name": "SQUARE AIR", "type": "A", "use": "PR", "medical": false, "elev_ft": 655.0}, "geometry": {"type": "Point", "coordinates": [-96.56415555, 33.24594833]}}, {"type": "Feature", "properties": {"site_no": 24272.14, "id": "T31", "name": "AERO COUNTRY", "type": "A", "use": "PU", "medical": false, "elev_ft": 765.0}, "geometry": {"type": "Point", "coordinates": [-96.74194111, 33.20845]}}, {"type": "Feature", "properties": {"site_no": 24284.0, "id": "2TS4", "name": "CIRCLE R RANCH", "type": "A", "use": "PR", "medical": false, "elev_ft": 395.0}, "geometry": {"type": "Point", "coordinates": [-95.97027777, 32.13972222]}}, {"type": "Feature", "properties": {"site_no": 24285.71, "id": "6TX7", "name": "FLYING L AIRPARK", "type": "A", "use": "PR", "medical": false, "elev_ft": 680.0}, "geometry": {"type": "Point", "coordinates": [-97.13084277, 32.5376375]}}, {"type": "Feature", "properties": {"site_no": 24321.8, "id": "34TE", "name": "BEE CREEK", "type": "A", "use": "PR", "medical": false, "elev_ft": 760.0}, "geometry": {"type": "Point", "coordinates": [-97.00861222, 32.23209166]}}, {"type": "Feature", "properties": {"site_no": 24321.81, "id": "19XS", "name": "DRAGGINTAIL ACRES", "type": "A", "use": "PR", "medical": false, "elev_ft": 585.0}, "geometry": {"type": "Point", "coordinates": [-97.08689166, 32.29719444]}}, {"type": "Feature", "properties": {"site_no": 24321.82, "id": "TA26", "name": "COYOTE CROSSING", "type": "A", "use": "PR", "medical": false, "elev_ft": 580.0}, "geometry": {"type": "Point", "coordinates": [-97.05680555, 32.29636111]}}, {"type": "Feature", "properties": {"site_no": 24344.5, "id": "31XS", "name": "FLY-N-SKI", "type": "A", "use": "PR", "medical": false, "elev_ft": 638.0}, "geometry": {"type": "Point", "coordinates": [-96.27025555, 33.183725]}}, {"type": "Feature", "properties": {"site_no": 24344.51, "id": "TE44", "name": "R-RANCH AIRSTRIP", "type": "A", "use": "PR", "medical": false, "elev_ft": 640.0}, "geometry": {"type": "Point", "coordinates": [-96.28866666, 33.24225]}}, {"type": "Feature", "properties": {"site_no": 24344.52, "id": "TT99", "name": "LEINART FARMS AIRSTRIP", "type": "A", "use": "PR", "medical": false, "elev_ft": 624.0}, "geometry": {"type": "Point", "coordinates": [-96.21984166, 33.19205833]}}, {"type": "Feature", "properties": {"site_no": 24346.5, "id": "HQZ", "name": "MESQUITE METRO", "type": "A", "use": "PU", "medical": false, "elev_ft": 446.5}, "geometry": {"type": "Point", "coordinates": [-96.53041722, 32.74696277]}}, {"type": "Feature", "properties": {"site_no": 24353.51, "id": "TA11", "name": "TSA", "type": "G", "use": "PR", "medical": false, "elev_ft": 660.0}, "geometry": {"type": "Point", "coordinates": [-97.01417027, 32.38347527]}}, {"type": "Feature", "properties": {"site_no": 24353.52, "id": "T56", "name": "EAGLE'S NEST ESTATES", "type": "A", "use": "PU", "medical": false, "elev_ft": 780.0}, "geometry": {"type": "Point", "coordinates": [-96.9267768, 32.51281222]}}, {"type": "Feature", "properties": {"site_no": 24353.6, "id": "JWY", "name": "MID-WAY RGNL", "type": "A", "use": "PU", "medical": false, "elev_ft": 727.0}, "geometry": {"type": "Point", "coordinates": [-96.91252638, 32.45829305]}}, {"type": "Feature", "properties": {"site_no": 24355.52, "id": "TE50", "name": "HIROK", "type": "A", "use": "PR", "medical": false, "elev_ft": 700.0}, "geometry": {"type": "Point", "coordinates": [-96.96611083, 32.173205]}}, {"type": "Feature", "properties": {"site_no": 24358.0, "id": "TE34", "name": "REB FOLBRE'S PLACE", "type": "A", "use": "PR", "medical": false, "elev_ft": 940.0}, "geometry": {"type": "Point", "coordinates": [-97.97281861, 32.76263]}}, {"type": "Feature", "properties": {"site_no": 24358.01, "id": "78XA", "name": "WAYPORT", "type": "A", "use": "PR", "medical": false, "elev_ft": 1079.0}, "geometry": {"type": "Point", "coordinates": [-97.91773888, 32.73920555]}}, {"type": "Feature", "properties": {"site_no": 24363.0, "id": "MWL", "name": "MINERAL WELLS RGNL", "type": "A", "use": "PU", "medical": false, "elev_ft": 973.6}, "geometry": {"type": "Point", "coordinates": [-98.060175, 32.78160555]}}, {"type": "Feature", "properties": {"site_no": 24363.03, "id": "0TS7", "name": "FLYING U", "type": "A", "use": "PR", "medical": false, "elev_ft": 978.0}, "geometry": {"type": "Point", "coordinates": [-98.12532222, 32.83345944]}}, {"type": "Feature", "properties": {"site_no": 24363.05, "id": "TX34", "name": "WINDY TALES", "type": "A", "use": "PR", "medical": false, "elev_ft": 980.0}, "geometry": {"type": "Point", "coordinates": [-97.98430555, 32.84795833]}}, {"type": "Feature", "properties": {"site_no": 24363.2, "id": "12TS", "name": "BLO", "type": "A", "use": "PR", "medical": false, "elev_ft": 1050.0}, "geometry": {"type": "Point", "coordinates": [-97.97726194, 32.9084575]}}, {"type": "Feature", "properties": {"site_no": 24382.0, "id": "TX36", "name": "BOYD", "type": "A", "use": "PR", "medical": false, "elev_ft": 755.0}, "geometry": {"type": "Point", "coordinates": [-97.58858333, 32.06091666]}}, {"type": "Feature", "properties": {"site_no": 24385.7, "id": "XA78", "name": "MELODY RANCH", "type": "A", "use": "PR", "medical": false, "elev_ft": 729.0}, "geometry": {"type": "Point", "coordinates": [-97.07098055, 33.46230833]}}, {"type": "Feature", "properties": {"site_no": 24393.04, "id": "XA48", "name": "DREAMLAND", "type": "A", "use": "PR", "medical": false, "elev_ft": 945.0}, "geometry": {"type": "Point", "coordinates": [-97.31565, 33.64151111]}}, {"type": "Feature", "properties": {"site_no": 24393.05, "id": "TS20", "name": "JOSEPH OF CUPERTINO STOLPORT", "type": "A", "use": "PR", "medical": false, "elev_ft": 1093.0}, "geometry": {"type": "Point", "coordinates": [-97.43211944, 33.65069722]}}, {"type": "Feature", "properties": {"site_no": 24398.12, "id": "3TE3", "name": "NEVADA AIRPARK", "type": "A", "use": "PR", "medical": false, "elev_ft": 600.0}, "geometry": {"type": "Point", "coordinates": [-96.431825, 33.07400833]}}, {"type": "Feature", "properties": {"site_no": 24409.25, "id": "XS05", "name": "FREEDOM", "type": "A", "use": "PR", "medical": false, "elev_ft": 840.0}, "geometry": {"type": "Point", "coordinates": [-97.39833888, 33.07282777]}}, {"type": "Feature", "properties": {"site_no": 24450.0, "id": "TS71", "name": "FLYING B RANCH", "type": "A", "use": "PR", "medical": false, "elev_ft": 780.0}, "geometry": {"type": "Point", "coordinates": [-96.94389194, 32.527915]}}, {"type": "Feature", "properties": {"site_no": 24465.51, "id": "T13", "name": "DALLAS SOUTH PORT", "type": "A", "use": "PU", "medical": false, "elev_ft": 474.0}, "geometry": {"type": "Point", "coordinates": [-96.68541666, 32.47738333]}}, {"type": "Feature", "properties": {"site_no": 24478.18, "id": "0XA0", "name": "RNW", "type": "A", "use": "PR", "medical": false, "elev_ft": 930.0}, "geometry": {"type": "Point", "coordinates": [-97.70848055, 33.01400555]}}, {"type": "Feature", "properties": {"site_no": 24478.86, "id": "4XS2", "name": "FELTON FLD", "type": "A", "use": "PR", "medical": false, "elev_ft": 795.0}, "geometry": {"type": "Point", "coordinates": [-97.73166666, 33.17055555]}}, {"type": "Feature", "properties": {"site_no": 24480.16, "id": "TE16", "name": "COW PASTURE", "type": "A", "use": "PR", "medical": false, "elev_ft": 795.0}, "geometry": {"type": "Point", "coordinates": [-97.29723583, 32.250425]}}, {"type": "Feature", "properties": {"site_no": 24480.17, "id": "TX74", "name": "THOMAS FLYING FLD", "type": "A", "use": "PR", "medical": false, "elev_ft": 830.0}, "geometry": {"type": "Point", "coordinates": [-97.27527777, 32.26138888]}}, {"type": "Feature", "properties": {"site_no": 24503.5, "id": "88TT", "name": "SHADY LANE RANCH", "type": "A", "use": "PR", "medical": false, "elev_ft": 650.0}, "geometry": {"type": "Point", "coordinates": [-97.00112777, 33.35118888]}}, {"type": "Feature", "properties": {"site_no": 24526.7, "id": "TE74", "name": "BUCKER FLD", "type": "A", "use": "PR", "medical": false, "elev_ft": 485.0}, "geometry": {"type": "Point", "coordinates": [-95.86694444, 32.95361111]}}, {"type": "Feature", "properties": {"site_no": 24527.22, "id": "74T", "name": "HICKS", "type": "A", "use": "PU", "medical": false, "elev_ft": 725.0}, "geometry": {"type": "Point", "coordinates": [-97.2546125, 33.18301111]}}, {"type": "Feature", "properties": {"site_no": 24527.23, "id": "XA10", "name": "PONDEROSA FLD", "type": "U", "use": "PR", "medical": false, "elev_ft": 840.0}, "geometry": {"type": "Point", "coordinates": [-97.33876944, 33.23191666]}}, {"type": "Feature", "properties": {"site_no": 24527.9, "id": "27XA", "name": "ARNETT LANDING", "type": "A", "use": "PR", "medical": false, "elev_ft": 1180.0}, "geometry": {"type": "Point", "coordinates": [-97.88991666, 32.97938888]}}, {"type": "Feature", "properties": {"site_no": 24586.9, "id": "T14", "name": "ROCKIN M", "type": "A", "use": "PU", "medical": false, "elev_ft": 473.0}, "geometry": {"type": "Point", "coordinates": [-96.09589305, 32.95249583]}}, {"type": "Feature", "properties": {"site_no": 24587.65, "id": "TT12", "name": "PASTRANA RANCH", "type": "A", "use": "PR", "medical": false, "elev_ft": 712.0}, "geometry": {"type": "Point", "coordinates": [-97.69338888, 32.27246111]}}, {"type": "Feature", "properties": {"site_no": 24590.0, "id": "5XS0", "name": "TNT", "type": "U", "use": "PR", "medical": false, "elev_ft": 708.0}, "geometry": {"type": "Point", "coordinates": [-96.26475, 33.49665]}}, {"type": "Feature", "properties": {"site_no": 24606.5, "id": "TA02", "name": "HOWARD FLD", "type": "A", "use": "PR", "medical": false, "elev_ft": 960.0}, "geometry": {"type": "Point", "coordinates": [-97.46418888, 33.10289916]}}, {"type": "Feature", "properties": {"site_no": 24606.51, "id": "T76", "name": "RHOME MEADOWS", "type": "A", "use": "PU", "medical": false, "elev_ft": 900.0}, "geometry": {"type": "Point", "coordinates": [-97.496135, 33.14928666]}}, {"type": "Feature", "properties": {"site_no": 24606.52, "id": "70T", "name": "FAIRVIEW", "type": "A", "use": "PU", "medical": false, "elev_ft": 915.0}, "geometry": {"type": "Point", "coordinates": [-97.42722222, 33.09444444]}}, {"type": "Feature", "properties": {"site_no": 24616.73, "id": "TE47", "name": "CROSS WIND ACRES", "type": "A", "use": "PR", "medical": false, "elev_ft": 760.0}, "geometry": {"type": "Point", "coordinates": [-97.31779166, 32.20903722]}}, {"type": "Feature", "properties": {"site_no": 24625.1, "id": "52F", "name": "AERO VALLEY", "type": "A", "use": "PU", "medical": false, "elev_ft": 643.0}, "geometry": {"type": "Point", "coordinates": [-97.2322375, 33.04984472]}}, {"type": "Feature", "properties": {"site_no": 24638.0, "id": "F46", "name": "RALPH M HALL/ROCKWALL MUNI", "type": "A", "use": "PU", "medical": false, "elev_ft": 574.1}, "geometry": {"type": "Point", "coordinates": [-96.43548555, 32.93059444]}}, {"type": "Feature", "properties": {"site_no": 24638.11, "id": "T48", "name": "POETRY FLYING RANCH", "type": "A", "use": "PU", "medical": false, "elev_ft": 500.0}, "geometry": {"type": "Point", "coordinates": [-96.21914166, 32.86812222]}}, {"type": "Feature", "properties": {"site_no": 24658.7, "id": "XA16", "name": "TIGHTWAAD AIR RANCH", "type": "A", "use": "PR", "medical": false, "elev_ft": 875.0}, "geometry": {"type": "Point", "coordinates": [-97.46555555, 33.49416666]}}, {"type": "Feature", "properties": {"site_no": 24664.01, "id": "33XA", "name": "POETRY LANDING", "type": "A", "use": "PR", "medical": false, "elev_ft": 555.0}, "geometry": {"type": "Point", "coordinates": [-96.30829027, 32.85695555]}}, {"type": "Feature", "properties": {"site_no": 24664.11, "id": "TT32", "name": "KUDLACEK FLD", "type": "A", "use": "PR", "medical": false, "elev_ft": 524.0}, "geometry": {"type": "Point", "coordinates": [-96.41047222, 33.01191666]}}, {"type": "Feature", "properties": {"site_no": 24664.13, "id": "84TT", "name": "CHUTE HAPPENS", "type": "U", "use": "PR", "medical": false, "elev_ft": 504.0}, "geometry": {"type": "Point", "coordinates": [-96.23787311, 32.90098536]}}, {"type": "Feature", "properties": {"site_no": 24726.1, "id": "T58", "name": "IRONHEAD", "type": "A", "use": "PU", "medical": false, "elev_ft": 715.0}, "geometry": {"type": "Point", "coordinates": [-97.23029388, 33.3317825]}}, {"type": "Feature", "properties": {"site_no": 24726.11, "id": "TE24", "name": "HORSESHOE LAKE", "type": "A", "use": "PR", "medical": false, "elev_ft": 725.0}, "geometry": {"type": "Point", "coordinates": [-97.2052925, 33.39316944]}}, {"type": "Feature", "properties": {"site_no": 24726.12, "id": "TX96", "name": "MAXWELL FLD", "type": "A", "use": "PR", "medical": false, "elev_ft": 825.0}, "geometry": {"type": "Point", "coordinates": [-97.25696138, 33.39928055]}}, {"type": "Feature", "properties": {"site_no": 24726.13, "id": "TS74", "name": "GLASS", "type": "A", "use": "PR", "medical": false, "elev_ft": 810.0}, "geometry": {"type": "Point", "coordinates": [-97.29446277, 33.36261444]}}, {"type": "Feature", "properties": {"site_no": 24726.14, "id": "6X8", "name": "VULTURES ROW", "type": "A", "use": "PU", "medical": false, "elev_ft": 710.0}, "geometry": {"type": "Point", "coordinates": [-97.10305555, 33.34]}}, {"type": "Feature", "properties": {"site_no": 24726.15, "id": "T87", "name": "FLYING C", "type": "A", "use": "PU", "medical": false, "elev_ft": 775.0}, "geometry": {"type": "Point", "coordinates": [-97.27, 33.34222222]}}, {"type": "Feature", "properties": {"site_no": 24726.18, "id": "XA03", "name": "EDGINGTON RANCH", "type": "A", "use": "PR", "medical": false, "elev_ft": 887.0}, "geometry": {"type": "Point", "coordinates": [-97.27127916, 33.42775277]}}, {"type": "Feature", "properties": {"site_no": 24753.0, "id": "9TE0", "name": "TWIN ACRES", "type": "A", "use": "PR", "medical": false, "elev_ft": 340.0}, "geometry": {"type": "Point", "coordinates": [-96.38355833, 32.39916666]}}, {"type": "Feature", "properties": {"site_no": 24756.7, "id": "5TA9", "name": "SEAGOVILLE", "type": "A", "use": "PR", "medical": false, "elev_ft": 415.0}, "geometry": {"type": "Point", "coordinates": [-96.52611111, 32.60916666]}}, {"type": "Feature", "properties": {"site_no": 24779.0, "id": "SWI", "name": "SHERMAN MUNI", "type": "A", "use": "PU", "medical": false, "elev_ft": 746.1}, "geometry": {"type": "Point", "coordinates": [-96.58613888, 33.62413888]}}, {"type": "Feature", "properties": {"site_no": 24779.02, "id": "TA93", "name": "LM RANCH", "type": "A", "use": "PR", "medical": false, "elev_ft": 770.0}, "geometry": {"type": "Point", "coordinates": [-96.73356666, 33.63330555]}}, {"type": "Feature", "properties": {"site_no": 24812.5, "id": "3TX", "name": "AKROVILLE", "type": "A", "use": "PU", "medical": false, "elev_ft": 895.0}, "geometry": {"type": "Point", "coordinates": [-97.35384722, 33.39285063]}}, {"type": "Feature", "properties": {"site_no": 24812.6, "id": "T28", "name": "CAIN", "type": "A", "use": "PU", "medical": false, "elev_ft": 917.0}, "geometry": {"type": "Point", "coordinates": [-97.43914722, 33.35444027]}}, {"type": "Feature", "properties": {"site_no": 24832.21, "id": "93XS", "name": "UNDERLINE OK", "type": "A", "use": "PR", "medical": false, "elev_ft": 1116.0}, "geometry": {"type": "Point", "coordinates": [-97.71392777, 32.92909722]}}, {"type": "Feature", "properties": {"site_no": 24835.1, "id": "61TE", "name": "KEZER AIR RANCH", "type": "A", "use": "PR", "medical": false, "elev_ft": 830.0}, "geometry": {"type": "Point", "coordinates": [-97.62076666, 32.98231666]}}, {"type": "Feature", "properties": {"site_no": 24835.11, "id": "6XS7", "name": "EUGENE'S DREAM", "type": "A", "use": "PR", "medical": false, "elev_ft": 905.0}, "geometry": {"type": "Point", "coordinates": [-97.67480555, 33.04527777]}}, {"type": "Feature", "properties": {"site_no": 24899.0, "id": "TRL", "name": "TERRELL MUNI", "type": "A", "use": "PU", "medical": false, "elev_ft": 474.2}, "geometry": {"type": "Point", "coordinates": [-96.26709444, 32.70849444]}}, {"type": "Feature", "properties": {"site_no": 24926.31, "id": "8XS6", "name": "MC MANUS FLD", "type": "A", "use": "PR", "medical": false, "elev_ft": 695.0}, "geometry": {"type": "Point", "coordinates": [-96.83277777, 33.45222222]}}, {"type": "Feature", "properties": {"site_no": 24927.45, "id": "23TA", "name": "ROWLAND R AIRFIELD", "type": "A", "use": "PR", "medical": false, "elev_ft": 705.0}, "geometry": {"type": "Point", "coordinates": [-96.45581805, 33.48733083]}}, {"type": "Feature", "properties": {"site_no": 24930.0, "id": "48TX", "name": "TRI-COUNTY AERODROME", "type": "A", "use": "PR", "medical": false, "elev_ft": 790.0}, "geometry": {"type": "Point", "coordinates": [-96.37728888, 33.45191944]}}, {"type": "Feature", "properties": {"site_no": 24930.01, "id": "52TA", "name": "RED WING", "type": "A", "use": "PR", "medical": false, "elev_ft": 755.0}, "geometry": {"type": "Point", "coordinates": [-96.35025972, 33.46399777]}}, {"type": "Feature", "properties": {"site_no": 24960.1, "id": "3XA1", "name": "HARDY FLD", "type": "A", "use": "PR", "medical": false, "elev_ft": 670.0}, "geometry": {"type": "Point", "coordinates": [-97.16926666, 33.47395]}}, {"type": "Feature", "properties": {"site_no": 24961.0, "id": "X16", "name": "TAILWHEEL ACRES", "type": "A", "use": "PU", "medical": false, "elev_ft": 679.0}, "geometry": {"type": "Point", "coordinates": [-97.12243975, 33.47363066]}}, {"type": "Feature", "properties": {"site_no": 24961.01, "id": "54XA", "name": "FLAHERTY", "type": "A", "use": "PR", "medical": false, "elev_ft": 802.0}, "geometry": {"type": "Point", "coordinates": [-97.21111111, 33.49152777]}}, {"type": "Feature", "properties": {"site_no": 24963.8, "id": "97XS", "name": "TILGHMAN", "type": "A", "use": "PR", "medical": false, "elev_ft": 741.0}, "geometry": {"type": "Point", "coordinates": [-96.47946666, 33.43283333]}}, {"type": "Feature", "properties": {"site_no": 24963.81, "id": "06XA", "name": "J & W WINDY HILL", "type": "A", "use": "PR", "medical": false, "elev_ft": 784.0}, "geometry": {"type": "Point", "coordinates": [-96.57079722, 33.44598333]}}, {"type": "Feature", "properties": {"site_no": 24963.82, "id": "TX16", "name": "PARKERS LANDING", "type": "A", "use": "PR", "medical": false, "elev_ft": 688.0}, "geometry": {"type": "Point", "coordinates": [-96.49834444, 33.40014444]}}, {"type": "Feature", "properties": {"site_no": 24966.87, "id": "75TS", "name": "VENUS", "type": "A", "use": "PR", "medical": false, "elev_ft": 665.0}, "geometry": {"type": "Point", "coordinates": [-97.09194444, 32.41638888]}}, {"type": "Feature", "properties": {"site_no": 24966.88, "id": "9XA4", "name": "CHIMERA AERODROME", "type": "A", "use": "PR", "medical": false, "elev_ft": 647.0}, "geometry": {"type": "Point", "coordinates": [-97.03985722, 32.35572947]}}, {"type": "Feature", "properties": {"site_no": 24983.54, "id": "74TE", "name": "FLAT TOP RANCH", "type": "A", "use": "PR", "medical": false, "elev_ft": 959.5}, "geometry": {"type": "Point", "coordinates": [-97.79483333, 32.06138888]}}, {"type": "Feature", "properties": {"site_no": 24986.2, "id": "25XS", "name": "MOONBOW FLD", "type": "A", "use": "PR", "medical": false, "elev_ft": 650.0}, "geometry": {"type": "Point", "coordinates": [-96.8463875, 32.4865275]}}, {"type": "Feature", "properties": {"site_no": 24986.24, "id": "54TA", "name": "GEORGE P SHANKS", "type": "A", "use": "PR", "medical": false, "elev_ft": 610.0}, "geometry": {"type": "Point", "coordinates": [-96.87333333, 32.29972222]}}, {"type": "Feature", "properties": {"site_no": 24986.29, "id": "51TE", "name": "BARSTOOL RANCH", "type": "A", "use": "PR", "medical": false, "elev_ft": 555.0}, "geometry": {"type": "Point", "coordinates": [-96.789893, 32.4724795]}}, {"type": "Feature", "properties": {"site_no": 24988.1, "id": "TA19", "name": "POST OAK AIRFIELD", "type": "A", "use": "PR", "medical": false, "elev_ft": 1020.0}, "geometry": {"type": "Point", "coordinates": [-97.78364194, 32.67457555]}}, {"type": "Feature", "properties": {"site_no": 24988.13, "id": "58TX", "name": "TAILSPIN ESTATES", "type": "A", "use": "PR", "medical": false, "elev_ft": 830.0}, "geometry": {"type": "Point", "coordinates": [-97.93414583, 32.65126388]}}, {"type": "Feature", "properties": {"site_no": 24988.15, "id": "F78", "name": "HORSESHOE BEND", "type": "A", "use": "PU", "medical": false, "elev_ft": 715.0}, "geometry": {"type": "Point", "coordinates": [-97.87253388, 32.57291222]}}, {"type": "Feature", "properties": {"site_no": 24988.18, "id": "08TX", "name": "CROSS WIND", "type": "A", "use": "PR", "medical": false, "elev_ft": 1040.0}, "geometry": {"type": "Point", "coordinates": [-97.74752944, 32.85818111]}}, {"type": "Feature", "properties": {"site_no": 24988.19, "id": "6TA7", "name": "FLYING K", "type": "A", "use": "PR", "medical": false, "elev_ft": 1150.0}, "geometry": {"type": "Point", "coordinates": [-97.77947555, 32.82845972]}}, {"type": "Feature", "properties": {"site_no": 24988.2, "id": "WEA", "name": "PARKER COUNTY", "type": "A", "use": "PU", "medical": false, "elev_ft": 991.2}, "geometry": {"type": "Point", "coordinates": [-97.68247083, 32.74572888]}}, {"type": "Feature", "properties": {"site_no": 24988.24, "id": "XA86", "name": "DRIFTWOOD RANCH", "type": "A", "use": "PR", "medical": false, "elev_ft": 711.0}, "geometry": {"type": "Point", "coordinates": [-97.80749166, 32.566975]}}, {"type": "Feature", "properties": {"site_no": 24988.25, "id": "XS53", "name": "PEASTER 01", "type": "A", "use": "PR", "medical": false, "elev_ft": 1247.0}, "geometry": {"type": "Point", "coordinates": [-97.86224722, 32.85048888]}}, {"type": "Feature", "properties": {"site_no": 24988.26, "id": "77TX", "name": "CIRCLE W RANCH", "type": "A", "use": "PR", "medical": false, "elev_ft": 978.0}, "geometry": {"type": "Point", "coordinates": [-97.83974166, 32.68635555]}}, {"type": "Feature", "properties": {"site_no": 25010.0, "id": "41TS", "name": "FLYING T RANCH", "type": "A", "use": "PR", "medical": false, "elev_ft": 705.0}, "geometry": {"type": "Point", "coordinates": [-96.44831805, 33.37844472]}}, {"type": "Feature", "properties": {"site_no": 25010.01, "id": "66XS", "name": "BAYLIE", "type": "A", "use": "PR", "medical": false, "elev_ft": 685.0}, "geometry": {"type": "Point", "coordinates": [-96.48859694, 33.39649972]}}, {"type": "Feature", "properties": {"site_no": 25022.65, "id": "T29", "name": "FLYING H RANCH", "type": "A", "use": "PU", "medical": false, "elev_ft": 760.0}, "geometry": {"type": "Point", "coordinates": [-96.94097083, 33.63042638]}}, {"type": "Feature", "properties": {"site_no": 25024.01, "id": "TX71", "name": "ROCK CREEK RANCH", "type": "A", "use": "PR", "medical": false, "elev_ft": 1130.0}, "geometry": {"type": "Point", "coordinates": [-98.01188888, 32.96863888]}}, {"type": "Feature", "properties": {"site_no": 25039.1, "id": "76F", "name": "VAN ZANDT COUNTY RGNL", "type": "A", "use": "PU", "medical": false, "elev_ft": 522.0}, "geometry": {"type": "Point", "coordinates": [-95.98413888, 32.68141666]}}, {"type": "Feature", "properties": {"site_no": 25039.13, "id": "2TS9", "name": "MCBEE FLD", "type": "A", "use": "PR", "medical": false, "elev_ft": 543.0}, "geometry": {"type": "Point", "coordinates": [-96.05722222, 32.75741666]}}, {"type": "Feature", "properties": {"site_no": 25039.18, "id": "8TE1", "name": "RICHIE RICH", "type": "A", "use": "PR", "medical": false, "elev_ft": 497.0}, "geometry": {"type": "Point", "coordinates": [-96.04395277, 32.74844444]}}, {"type": "Feature", "properties": {"site_no": 25063.1, "id": "42TX", "name": "MAGEE", "type": "A", "use": "PR", "medical": false, "elev_ft": 620.0}, "geometry": {"type": "Point", "coordinates": [-96.06691611, 33.31677777]}}, {"type": "Feature", "properties": {"site_no": 25063.11, "id": "34TA", "name": "ZQ RANCH", "type": "A", "use": "PR", "medical": false, "elev_ft": 602.0}, "geometry": {"type": "Point", "coordinates": [-96.09740305, 33.3458808]}}, {"type": "Feature", "properties": {"site_no": 25064.0, "id": "80XS", "name": "THREE ACRES", "type": "A", "use": "PR", "medical": false, "elev_ft": 775.0}, "geometry": {"type": "Point", "coordinates": [-97.00222222, 33.64333333]}}]}