{"type": "FeatureCollection", "features": [{"type": "Feature", "properties": {"site_no": 23305.54, "id": "XA53", "name": "PRESBYTERIAN HOSPITAL OF ALLEN", "type": "H", "use": "PR", "medical": true, "elev_ft": 664.0}, "geometry": {"type": "Point", "coordinates": [-96.67231388, 33.11706111]}}, {"type": "Feature", "properties": {"site_no": 23348.01, "id": "TA48", "name": "HAWK NEST", "type": "H", "use": "PR", "medical": false, "elev_ft": 657.0}, "geometry": {"type": "Point", "coordinates": [-97.15386388, 33.127425]}}, {"type": "Feature", "properties": {"site_no": 23348.03, "id": "94TE", "name": "BARBARO NORTH", "type": "H", "use": "PR", "medical": false, "elev_ft": 632.0}, "geometry": {"type": "Point", "coordinates": [-97.147, 33.098275]}}, {"type": "Feature", "properties": {"site_no": 23352.01, "id": "TE80", "name": "MEDICAL CENTER ARLINGTON", "type": "H", "use": "PR", "medical": true, "elev_ft": 664.0}, "geometry": {"type": "Point", "coordinates": [-97.11138888, 32.6925]}}, {"type": "Feature", "properties": {"site_no": 23352.05, "id": "XS54", "name": "SHERATON ARLINGTON HOTEL", "type": "H", "use": "PR", "medical": false, "elev_ft": 535.0}, "geometry": {"type": "Point", "coordinates": [-97.08111111, 32.75777777]}}, {"type": "Feature", "properties": {"site_no": 23352.07, "id": "1TX1", "name": "DALLAS COWBOYS", "type": "H", "use": "PR", "medical": false, "elev_ft": 565.0}, "geometry": {"type": "Point", "coordinates": [-97.09416666, 32.74527777]}}, {"type": "Feature", "properties": {"site_no": 23352.22, "id": "65TA", "name": "TEXAS HEALTH RESOURCES ARLINGTON MEML", "type": "H", "use": "PR", "medical": true, "elev_ft": 640.0}, "geometry": {"type": "Point", "coordinates": [-97.11737777, 32.74852777]}}, {"type": "Feature", "properties": {"site_no": 23363.0, "id": "TX17", "name": "UT HEALTH EAST TEXAS ATHENS HOSPITAL", "type": "H", "use": "PR", "medical": true, "elev_ft": 502.7}, "geometry": {"type": "Point", "coordinates": [-95.84715277, 32.16959722]}}, {"type": "Feature", "properties": {"site_no": 23363.03, "id": "XA87", "name": "COON CREEK CLUB", "type": "H", "use": "PR", "medical": false, "elev_ft": 370.0}, "geometry": {"type": "Point", "coordinates": [-95.85032777, 32.07841111]}}, {"type": "Feature", "properties": {"site_no": 23363.37, "id": "TA49", "name": "CHRISTUS MOTHER FRANCES ATHENS", "type": "H", "use": "PR", "medical": true, "elev_ft": 489.0}, "geometry": {"type": "Point", "coordinates": [-95.843465, 32.173191]}}, {"type": "Feature", "properties": {"site_no": 23368.03, "id": "30XA", "name": "EMERGENCY ROOM AT MAGNOLIA", "type": "H", "use": "PR", "medical": true, "elev_ft": 594.0}, "geometry": {"type": "Point", "coordinates": [-96.91293333, 33.22062777]}}, {"type": "Feature", "properties": {"site_no": 23382.19, "id": "64TA", "name": "TEXAS HEALTH RESOURCES AZLE", "type": "H", "use": "PR", "medical": false, "elev_ft": 677.0}, "geometry": {"type": "Point", "coordinates": [-97.53208333, 32.88]}}, {"type": "Feature", "properties": {"site_no": 23404.8, "id": "TX06", "name": "CARRINGTON", "type": "H", "use": "PR", "medical": false, "elev_ft": 675.0}, "geometry": {"type": "Point", "coordinates": [-97.14070555, 33.07779166]}}, {"type": "Feature", "properties": {"site_no": 23417.71, "id": "TX30", "name": "H E B HOSPITAL", "type": "H", "use": "PR", "medical": true, "elev_ft": 552.0}, "geometry": {"type": "Point", "coordinates": [-97.12261666, 32.83400277]}}, {"type": "Feature", "properties": {"site_no": 23518.38, "id": "8TA7", "name": "TEXAS HEALTH RESOURCES BURLESON", "type": "H", "use": "PR", "medical": false, "elev_ft": 799.0}, "geometry": {"type": "Point", "coordinates": [-97.36879166, 32.49763888]}}, {"type": "Feature", "properties": {"site_no": 23543.02, "id": "XA00", "name": "VOLO RANCH", "type": "H", "use": "PR", "medical": false, "elev_ft": 585.0}, "geometry": {"type": "Point", "coordinates": [-95.906205, 33.11614]}}, {"type": "Feature", "properties": {"site_no": 23548.55, "id": "XA97", "name": "MOTHER FRANCES-CANTON", "type": "H", "use": "PR", "medical": true, "elev_ft": 509.0}, "geometry": {"type": "Point", "coordinates": [-95.87370488, 32.5872368]}}, {"type": "Feature", "properties": {"site_no": 23561.02, "id": "4XS4", "name": "CARROLLTON RGNL MEDICAL CENTER", "type": "H", "use": "PR", "medical": true, "elev_ft": 572.0}, "geometry": {"type": "Point", "coordinates": [-96.887, 33.02865]}}, {"type": "Feature", "properties": {"site_no": 23577.01, "id": "79TT", "name": "METHODIST CELINA", "type": "H", "use": "PR", "medical": true, "elev_ft": 666.0}, "geometry": {"type": "Point", "coordinates": [-96.80899166, 33.30606111]}}, {"type": "Feature", "properties": {"site_no": 23617.19, "id": "4TA9", "name": "TEXAS HEALTH RESOURCES CLEBURNE", "type": "H", "use": "PR", "medical": false, "elev_ft": 790.0}, "geometry": {"type": "Point", "coordinates": [-97.43777777, 32.33305555]}}, {"type": "Feature", "properties": {"site_no": 23664.02, "id": "25TE", "name": "NAVARRO RGNL HOSPITAL", "type": "H", "use": "PR", "medical": true, "elev_ft": 479.5}, "geometry": {"type": "Point", "coordinates": [-96.50389125, 32.08276777]}}, {"type": "Feature", "properties": {"site_no": 23676.8, "id": "95TE", "name": "STAR", "type": "H", "use": "PR", "medical": false, "elev_ft": 615.0}, "geometry": {"type": "Point", "coordinates": [-96.99594444, 33.21549722]}}, {"type": "Feature", "properties": {"site_no": 23681.1, "id": "07XS", "name": "ALLEN PONDEROSA", "type": "H", "use": "PR", "medical": false, "elev_ft": 840.0}, "geometry": {"type": "Point", "coordinates": [-97.39168333, 32.54218333]}}, {"type": "Feature", "properties": {"site_no": 23710.15, "id": "XS97", "name": "METHODIST CHARLTON MEDICAL CENTER", "type": "H", "use": "PR", "medical": true, "elev_ft": 710.0}, "geometry": {"type": "Point", "coordinates": [-96.87822222, 32.64625]}}, {"type": "Feature", "properties": {"site_no": 23710.18, "id": "49T", "name": "DALLAS CBD", "type": "H", "use": "PU", "medical": false, "elev_ft": 480.0}, "geometry": {"type": "Point", "coordinates": [-96.80205555, 32.77172222]}}, {"type": "Feature", "properties": {"site_no": 23710.19, "id": "TX18", "name": "REDMOND TAYLOR AHP", "type": "H", "use": "PR", "medical": false, "elev_ft": 480.0}, "geometry": {"type": "Point", "coordinates": [-96.97225, 32.73383333]}}, {"type": "Feature", "properties": {"site_no": 23710.21, "id": "TX53", "name": "POLICE H PORT-REDBIRD", "type": "H", "use": "PR", "medical": false, "elev_ft": 659.0}, "geometry": {"type": "Point", "coordinates": [-96.869062, 32.677539]}}, {"type": "Feature", "properties": {"site_no": 23710.27, "id": "TE43", "name": "PARKLAND HEALTH & HOSPITAL SYSTEM", "type": "H", "use": "PR", "medical": true, "elev_ft": 777.5}, "geometry": {"type": "Point", "coordinates": [-96.83722222, 32.81138888]}}, {"type": "Feature", "properties": {"site_no": 23710.29, "id": "XA61", "name": "BAYLOR UNIVERSITY MEDICAL CENTER DALLAS", "type": "H", "use": "PR", "medical": false, "elev_ft": 551.0}, "geometry": {"type": "Point", "coordinates": [-96.7801, 32.78833055]}}, {"type": "Feature", "properties": {"site_no": 23710.31, "id": "TS06", "name": "MEDICAL CITY DALLAS HOSPITAL", "type": "H", "use": "PR", "medical": true, "elev_ft": 684.1}, "geometry": {"type": "Point", "coordinates": [-96.77530652, 32.91187361]}}, {"type": "Feature", "properties": {"site_no": 23710.33, "id": "37TA", "name": "TEXAS HEALTH PRESBYTERIAN HOSPITAL DALLAS", "type": "H", "use": "PR", "medical": true, "elev_ft": 667.0}, "geometry": {"type": "Point", "coordinates": [-96.76286111, 32.88039444]}}, {"type": "Feature", "properties": {"site_no": 23710.35, "id": "TX98", "name": "CRESPI HELISTOP", "type": "H", "use": "PR", "medical": false, "elev_ft": 566.0}, "geometry": {"type": "Point", "coordinates": [-96.81171111, 32.88233055]}}, {"type": "Feature", "properties": {"site_no": 23710.4, "id": "XA62", "name": "METHODIST DALLAS MEDICAL CENTER", "type": "H", "use": "PR", "medical": true, "elev_ft": 599.0}, "geometry": {"type": "Point", "coordinates": [-96.8244, 32.76048055]}}, {"type": "Feature", "properties": {"site_no": 23713.01, "id": "38TX", "name": "UTSW MEDICAL CENTER - CLEMENTS", "type": "H", "use": "PR", "medical": true, "elev_ft": 506.5}, "geometry": {"type": "Point", "coordinates": [-96.85033055, 32.82044722]}}, {"type": "Feature", "properties": {"site_no": 23713.03, "id": "85TS", "name": "MEDICAL CITY DALLAS EAST", "type": "H", "use": "PR", "medical": true, "elev_ft": 535.0}, "geometry": {"type": "Point", "coordinates": [-96.76751111, 32.912225]}}, {"type": "Feature", "properties": {"site_no": 23726.18, "id": "XA57", "name": "MEDICAL CITY DECATUR", "type": "H", "use": "PR", "medical": true, "elev_ft": 957.0}, "geometry": {"type": "Point", "coordinates": [-97.59693333, 33.21831944]}}, {"type": "Feature", "properties": {"site_no": 23726.23, "id": "25TT", "name": "AMERICAN BIO SOURCE", "type": "H", "use": "PR", "medical": false, "elev_ft": 899.0}, "geometry": {"type": "Point", "coordinates": [-97.617229, 33.271024]}}, {"type": "Feature", "properties": {"site_no": 23749.02, "id": "TS58", "name": "MEDICAL CITY DENTON", "type": "H", "use": "PR", "medical": true, "elev_ft": 625.0}, "geometry": {"type": "Point", "coordinates": [-97.09270305, 33.17800355]}}, {"type": "Feature", "properties": {"site_no": 23749.04, "id": "TX50", "name": "TEXAS HEALTH PRESBYTERIAN HOSPITAL DENTON", "type": "H", "use": "PR", "medical": true, "elev_ft": 861.0}, "geometry": {"type": "Point", "coordinates": [-97.16823055, 33.21803333]}}, {"type": "Feature", "properties": {"site_no": 23759.7, "id": "73T", "name": "COLONEL BOBBY WADDLE/DESOTO", "type": "H", "use": "PU", "medical": false, "elev_ft": 648.5}, "geometry": {"type": "Point", "coordinates": [-96.85522777, 32.63166111]}}, {"type": "Feature", "properties": {"site_no": 23831.51, "id": "12TE", "name": "EMORY FIRE DEPARTMENT", "type": "H", "use": "PR", "medical": false, "elev_ft": 492.0}, "geometry": {"type": "Point", "coordinates": [-95.781461, 32.884745]}}, {"type": "Feature", "properties": {"site_no": 23842.6, "id": "6TA1", "name": "SKY RANCH", "type": "H", "use": "PR", "medical": false, "elev_ft": 530.0}, "geometry": {"type": "Point", "coordinates": [-95.87280833, 32.35662222]}}, {"type": "Feature", "properties": {"site_no": 23853.7, "id": "TE82", "name": "5-STATE", "type": "H", "use": "PR", "medical": false, "elev_ft": 555.0}, "geometry": {"type": "Point", "coordinates": [-96.3675, 32.93861111]}}, {"type": "Feature", "properties": {"site_no": 23856.0, "id": "12T", "name": "FERRIS RED OAK MUNI", "type": "H", "use": "PU", "medical": false, "elev_ft": 510.0}, "geometry": {"type": "Point", "coordinates": [-96.73116111, 32.52986111]}}, {"type": "Feature", "properties": {"site_no": 23887.03, "id": "51TA", "name": "HARRIS METHODIST SOUTHWEST HELISTOP", "type": "H", "use": "PR", "medical": true, "elev_ft": 744.0}, "geometry": {"type": "Point", "coordinates": [-97.42168333, 32.65692777]}}, {"type": "Feature", "properties": {"site_no": 23887.04, "id": "1XS3", "name": "JOHN PETER SMITH HEALTH NETWORK", "type": "H", "use": "PR", "medical": true, "elev_ft": 756.0}, "geometry": {"type": "Point", "coordinates": [-97.32611111, 32.7275]}}, {"type": "Feature", "properties": {"site_no": 23887.09, "id": "TS56", "name": "KTVT CHANNEL 11", "type": "H", "use": "PR", "medical": false, "elev_ft": 595.0}, "geometry": {"type": "Point", "coordinates": [-97.24541944, 32.76179444]}}, {"type": "Feature", "properties": {"site_no": 23887.13, "id": "XS96", "name": "HILLWOOD", "type": "H", "use": "PR", "medical": false, "elev_ft": 650.0}, "geometry": {"type": "Point", "coordinates": [-97.30884722, 32.97645]}}, {"type": "Feature", "properties": {"site_no": 23887.14, "id": "5TX9", "name": "PARKWAY SURGICAL HOSPITAL", "type": "H", "use": "PR", "medical": false, "elev_ft": 675.0}, "geometry": {"type": "Point", "coordinates": [-97.31323333, 32.89611666]}}, {"type": "Feature", "properties": {"site_no": 23887.21, "id": "TE30", "name": "HARRIS HOSPITAL", "type": "H", "use": "PR", "medical": true, "elev_ft": 753.0}, "geometry": {"type": "Point", "coordinates": [-97.3385485, 32.73539027]}}, {"type": "Feature", "properties": {"site_no": 23887.24, "id": "XA18", "name": "BAYLOR SCOTT & WHITE ALL SAINTS MED CTR - FT WORTH", "type": "H", "use": "PR", "medical": true, "elev_ft": 689.0}, "geometry": {"type": "Point", "coordinates": [-97.34621111, 32.73108611]}}, {"type": "Feature", "properties": {"site_no": 23887.31, "id": "3XS7", "name": "BELL TRAINING FACILITY", "type": "H", "use": "PR", "medical": false, "elev_ft": 657.0}, "geometry": {"type": "Point", "coordinates": [-97.2935, 33.04916666]}}, {"type": "Feature", "properties": {"site_no": 23887.6, "id": "93TX", "name": "JOHN PETER SMITH EMS BUILDING", "type": "H", "use": "PR", "medical": false, "elev_ft": 750.0}, "geometry": {"type": "Point", "coordinates": [-97.32658333, 32.726975]}}, {"type": "Feature", "properties": {"site_no": 23889.19, "id": "0TA3", "name": "TEXAS HEALTH METHODIST ALLIANCE", "type": "H", "use": "PR", "medical": false, "elev_ft": 782.0}, "geometry": {"type": "Point", "coordinates": [-97.30893888, 32.93012777]}}, {"type": "Feature", "properties": {"site_no": 23895.02, "id": "XS04", "name": "BELL SOUTH AIRFIELD", "type": "H", "use": "PR", "medical": false, "elev_ft": 473.0}, "geometry": {"type": "Point", "coordinates": [-97.14606666, 32.79700555]}}, {"type": "Feature", "properties": {"site_no": 23895.12, "id": "XA36", "name": "COOK CHILDREN'S MEDICAL CENTER", "type": "H", "use": "PR", "medical": true, "elev_ft": 707.0}, "geometry": {"type": "Point", "coordinates": [-97.34154722, 32.73815]}}, {"type": "Feature", "properties": {"site_no": 23895.13, "id": "XA37", "name": "PLAZA MEDICAL CENTER", "type": "H", "use": "PR", "medical": true, "elev_ft": 607.0}, "geometry": {"type": "Point", "coordinates": [-97.3442, 32.73475]}}, {"type": "Feature", "properties": {"site_no": 23895.5, "id": "TA92", "name": "HDC1", "type": "H", "use": "PR", "medical": false, "elev_ft": 774.0}, "geometry": {"type": "Point", "coordinates": [-97.30972777, 32.91959444]}}, {"type": "Feature", "properties": {"site_no": 23895.51, "id": "XA65", "name": "MEDICAL CITY ALLIANCE", "type": "H", "use": "PR", "medical": true, "elev_ft": 700.0}, "geometry": {"type": "Point", "coordinates": [-97.31280555, 32.90033888]}}, {"type": "Feature", "properties": {"site_no": 23895.52, "id": "89TE", "name": "PLAZA MEDICAL CENTER", "type": "H", "use": "PR", "medical": true, "elev_ft": 690.0}, "geometry": {"type": "Point", "coordinates": [-97.34609347, 32.73593472]}}, {"type": "Feature", "properties": {"site_no": 23895.53, "id": "97XA", "name": "HELIBARN LANDING", "type": "H", "use": "PR", "medical": false, "elev_ft": 886.0}, "geometry": {"type": "Point", "coordinates": [-97.51235277, 32.69906944]}}, {"type": "Feature", "properties": {"site_no": 23895.54, "id": "56XA", "name": "TEXAS HEALTH HUGULEY HOSPITAL", "type": "H", "use": "PR", "medical": true, "elev_ft": 685.0}, "geometry": {"type": "Point", "coordinates": [-97.31849444, 32.58762222]}}, {"type": "Feature", "properties": {"site_no": 23908.08, "id": "13TA", "name": "TEXAS HEALTH RESOURCES FRISCO HOSPITAL", "type": "H", "use": "PR", "medical": true, "elev_ft": 646.0}, "geometry": {"type": "Point", "coordinates": [-96.83846666, 33.18079722]}}, {"type": "Feature", "properties": {"site_no": 23908.52, "id": "29TA", "name": "MED CITY FRISCO", "type": "H", "use": "PR", "medical": true, "elev_ft": 625.0}, "geometry": {"type": "Point", "coordinates": [-96.83845833, 33.15203333]}}, {"type": "Feature", "properties": {"site_no": 23908.53, "id": "53TS", "name": "BAYLOR SCOTT & WHITE FRISCO", "type": "H", "use": "PR", "medical": true, "elev_ft": 643.0}, "geometry": {"type": "Point", "coordinates": [-96.81476111, 33.20994166]}}, {"type": "Feature", "properties": {"site_no": 23908.54, "id": "45XA", "name": "BSWMC CENTENNIAL", "type": "H", "use": "PR", "medical": true, "elev_ft": 740.0}, "geometry": {"type": "Point", "coordinates": [-96.77153333, 33.11299166]}}, {"type": "Feature", "properties": {"site_no": 23911.02, "id": "8TX9", "name": "NORTH TEXAS MEDICAL CENTER", "type": "H", "use": "PR", "medical": true, "elev_ft": 780.0}, "geometry": {"type": "Point", "coordinates": [-97.163525, 33.645475]}}, {"type": "Feature", "properties": {"site_no": 23925.0, "id": "T57", "name": "GARLAND/DFW HELOPLEX", "type": "H", "use": "PU", "medical": false, "elev_ft": 601.0}, "geometry": {"type": "Point", "coordinates": [-96.68501666, 32.88691666]}}, {"type": "Feature", "properties": {"site_no": 23925.14, "id": "90TA", "name": "FAULKNER POINT", "type": "H", "use": "PR", "medical": false, "elev_ft": 460.0}, "geometry": {"type": "Point", "coordinates": [-96.54081944, 32.86696666]}}, {"type": "Feature", "properties": {"site_no": 23948.27, "id": "XA54", "name": "GLEN ROSE MEDICAL CENTER", "type": "H", "use": "PR", "medical": true, "elev_ft": 825.0}, "geometry": {"type": "Point", "coordinates": [-97.746, 32.2422]}}, {"type": "Feature", "properties": {"site_no": 23969.02, "id": "0TX2", "name": "HELIPORT-FACILITY 5A", "type": "H", "use": "PR", "medical": false, "elev_ft": 546.0}, "geometry": {"type": "Point", "coordinates": [-97.06094166, 32.77605277]}}, {"type": "Feature", "properties": {"site_no": 23969.08, "id": "56TA", "name": "DALLAS/FORT WORTH MEDICAL CENTER", "type": "H", "use": "PR", "medical": true, "elev_ft": 578.0}, "geometry": {"type": "Point", "coordinates": [-97.05042777, 32.73291666]}}, {"type": "Feature", "properties": {"site_no": 23974.3, "id": "78TX", "name": "BAYLOR SCOTT & WHITE MED CTR - GRAPEVINE", "type": "H", "use": "PR", "medical": true, "elev_ft": 714.0}, "geometry": {"type": "Point", "coordinates": [-97.09535, 32.93412222]}}, {"type": "Feature", "properties": {"site_no": 23985.05, "id": "XA56", "name": "HUNT RGNL MEDICAL CENTER", "type": "H", "use": "PR", "medical": true, "elev_ft": 579.0}, "geometry": {"type": "Point", "coordinates": [-96.1251, 33.12228888]}}, {"type": "Feature", "properties": {"site_no": 23985.12, "id": "XA35", "name": "QUALITY CARE ER", "type": "H", "use": "PR", "medical": true, "elev_ft": 547.0}, "geometry": {"type": "Point", "coordinates": [-96.12650555, 33.08933611]}}, {"type": "Feature", "properties": {"site_no": 23985.13, "id": "53TX", "name": "INNOVATION FIRST", "type": "H", "use": "PR", "medical": false, "elev_ft": 521.0}, "geometry": {"type": "Point", "coordinates": [-96.149562, 33.064243]}}, {"type": "Feature", "properties": {"site_no": 23997.5, "id": "8TX1", "name": "MEDICAL EMERGENCY GBC", "type": "H", "use": "PR", "medical": true, "elev_ft": 395.0}, "geometry": {"type": "Point", "coordinates": [-96.11638611, 32.335525]}}, {"type": "Feature", "properties": {"site_no": 23997.51, "id": "TS72", "name": "UT HEALTH EAST TEXAS CEDAR CREEK LAKE", "type": "H", "use": "PR", "medical": true, "elev_ft": 393.8}, "geometry": {"type": "Point", "coordinates": [-96.11583333, 32.33203597]}}, {"type": "Feature", "properties": {"site_no": 24028.105, "id": "XS37", "name": "PECAN KNOLL", "type": "H", "use": "PR", "medical": false, "elev_ft": 448.0}, "geometry": {"type": "Point", "coordinates": [-96.492625, 32.8181]}}, {"type": "Feature", "properties": {"site_no": 24092.2, "id": "0TE2", "name": "BELL HELICOPTER HURST", "type": "H", "use": "PR", "medical": false, "elev_ft": 516.0}, "geometry": {"type": "Point", "coordinates": [-97.16406388, 32.806425]}}, {"type": "Feature", "properties": {"site_no": 24104.24, "id": "XA21", "name": "LAS COLINAS MEDICAL CENTER", "type": "H", "use": "PR", "medical": true, "elev_ft": 502.0}, "geometry": {"type": "Point", "coordinates": [-96.95683055, 32.90279444]}}, {"type": "Feature", "properties": {"site_no": 24104.25, "id": "4XA7", "name": "BAYLOR HEALTH CENTER AT IRVING COPPELL", "type": "H", "use": "PR", "medical": true, "elev_ft": 527.0}, "geometry": {"type": "Point", "coordinates": [-96.95246944, 32.91296666]}}, {"type": "Feature", "properties": {"site_no": 24104.28, "id": "19XA", "name": "BAYLOR SCOTT & WHITE MED CTR - IRVING", "type": "H", "use": "PR", "medical": true, "elev_ft": 510.0}, "geometry": {"type": "Point", "coordinates": [-96.96195, 32.83441666]}}, {"type": "Feature", "properties": {"site_no": 24141.19, "id": "XA55", "name": "TEXAS HEALTH RESOURCES KAUFMAN", "type": "H", "use": "PR", "medical": true, "elev_ft": 434.0}, "geometry": {"type": "Point", "coordinates": [-96.31765277, 32.59238888]}}, {"type": "Feature", "properties": {"site_no": 24155.11, "id": "XS17", "name": "GONE NUTS HELI BASE", "type": "H", "use": "PR", "medical": false, "elev_ft": 354.0}, "geometry": {"type": "Point", "coordinates": [-96.307797, 32.081855]}}, {"type": "Feature", "properties": {"site_no": 24208.21, "id": "XA59", "name": "MEDICAL CITY LEWISVILLE", "type": "H", "use": "PR", "medical": true, "elev_ft": 546.0}, "geometry": {"type": "Point", "coordinates": [-97.0053, 33.04408888]}}, {"type": "Feature", "properties": {"site_no": 24248.0, "id": "XA63", "name": "AAF", "type": "H", "use": "PR", "medical": false, "elev_ft": 615.0}, "geometry": {"type": "Point", "coordinates": [-96.5925, 33.09083333]}}, {"type": "Feature", "properties": {"site_no": 24248.02, "id": "31TT", "name": "A1 HVM", "type": "H", "use": "PR", "medical": false, "elev_ft": 610.0}, "geometry": {"type": "Point", "coordinates": [-96.59844444, 33.0995]}}, {"type": "Feature", "properties": {"site_no": 24272.01, "id": "TE66", "name": "LMC", "type": "H", "use": "PR", "medical": false, "elev_ft": 708.0}, "geometry": {"type": "Point", "coordinates": [-96.632525, 33.21398055]}}, {"type": "Feature", "properties": {"site_no": 24272.16, "id": "6XA7", "name": "BAYLOR SCOTT & WHITE MED CTR - MCKINNEY", "type": "H", "use": "PR", "medical": true, "elev_ft": 631.0}, "geometry": {"type": "Point", "coordinates": [-96.68347777, 33.22034444]}}, {"type": "Feature", "properties": {"site_no": 24272.19, "id": "51XA", "name": "MEDICAL CITY MCKINNEY", "type": "H", "use": "PR", "medical": true, "elev_ft": 670.0}, "geometry": {"type": "Point", "coordinates": [-96.63637383, 33.16097383]}}, {"type": "Feature", "properties": {"site_no": 24285.63, "id": "0XA9", "name": "METHODIST MANSFIELD MEDICAL CENTER", "type": "H", "use": "PR", "medical": true, "elev_ft": 633.0}, "geometry": {"type": "Point", "coordinates": [-97.09558888, 32.567225]}}, {"type": "Feature", "properties": {"site_no": 24285.73, "id": "XA64", "name": "TEXAS HEALTH MANSFIELD", "type": "H", "use": "PR", "medical": true, "elev_ft": 638.0}, "geometry": {"type": "Point", "coordinates": [-97.10013888, 32.53602777]}}, {"type": "Feature", "properties": {"site_no": 24285.74, "id": "52TE", "name": "RAYBURN", "type": "H", "use": "PR", "medical": false, "elev_ft": 730.0}, "geometry": {"type": "Point", "coordinates": [-97.202332, 32.605665]}}, {"type": "Feature", "properties": {"site_no": 24346.41, "id": "TA94", "name": "CREECH", "type": "H", "use": "PR", "medical": false, "elev_ft": 420.0}, "geometry": {"type": "Point", "coordinates": [-96.55717777, 32.71109166]}}, {"type": "Feature", "properties": {"site_no": 24346.42, "id": "2TA2", "name": "THE MEDICAL CENTER OF MESQUITE", "type": "H", "use": "PR", "medical": true, "elev_ft": 506.0}, "geometry": {"type": "Point", "coordinates": [-96.60112222, 32.77922222]}}, {"type": "Feature", "properties": {"site_no": 24353.53, "id": "32XS", "name": "CEDAR CIRCLE", "type": "H", "use": "PR", "medical": false, "elev_ft": 750.0}, "geometry": {"type": "Point", "coordinates": [-97.0087, 32.46150555]}}, {"type": "Feature", "properties": {"site_no": 24353.54, "id": "87XA", "name": "METHODIST MIDLOTHIAN MEDICAL CENTER", "type": "H", "use": "PR", "medical": true, "elev_ft": 761.0}, "geometry": {"type": "Point", "coordinates": [-96.98081111, 32.46970555]}}, {"type": "Feature", "properties": {"site_no": 24363.02, "id": "88TS", "name": "FORT WOLTERS HELICOPTERS", "type": "H", "use": "PR", "medical": false, "elev_ft": 887.0}, "geometry": {"type": "Point", "coordinates": [-98.06242777, 32.83850277]}}, {"type": "Feature", "properties": {"site_no": 24363.1, "id": "TA32", "name": "UPHAM", "type": "H", "use": "PR", "medical": false, "elev_ft": 873.0}, "geometry": {"type": "Point", "coordinates": [-98.06672444, 32.80025416]}}, {"type": "Feature", "properties": {"site_no": 24421.805, "id": "TE92", "name": "HARDEMAN RANCH", "type": "H", "use": "PR", "medical": false, "elev_ft": 667.0}, "geometry": {"type": "Point", "coordinates": [-97.26235555, 33.08383611]}}, {"type": "Feature", "properties": {"site_no": 24422.1, "id": "TE65", "name": "NRH FIRE DEPARTMENT", "type": "H", "use": "PR", "medical": false, "elev_ft": 615.0}, "geometry": {"type": "Point", "coordinates": [-97.23123611, 32.85916111]}}, {"type": "Feature", "properties": {"site_no": 24422.11, "id": "24TS", "name": "MEDICAL CENTER NORTH HILLS", "type": "H", "use": "PR", "medical": true, "elev_ft": 561.0}, "geometry": {"type": "Point", "coordinates": [-97.21277777, 32.82638888]}}, {"type": "Feature", "properties": {"site_no": 24498.5, "id": "TT74", "name": "MOURA", "type": "H", "use": "PR", "medical": false, "elev_ft": 1228.0}, "geometry": {"type": "Point", "coordinates": [-98.08302777, 33.10316666]}}, {"type": "Feature", "properties": {"site_no": 24522.01, "id": "6TS9", "name": "MCP", "type": "H", "use": "PR", "medical": true, "elev_ft": 761.7}, "geometry": {"type": "Point", "coordinates": [-96.76656458, 33.02243333]}}, {"type": "Feature", "properties": {"site_no": 24522.02, "id": "49TS", "name": "E D S", "type": "H", "use": "PR", "medical": false, "elev_ft": 697.0}, "geometry": {"type": "Point", "coordinates": [-96.80897777, 33.07243055]}}, {"type": "Feature", "properties": {"site_no": 24522.03, "id": "35TA", "name": "TEXAS HEALTH PRESBYTERIAN HOSPITAL PLANO", "type": "H", "use": "PR", "medical": true, "elev_ft": 669.0}, "geometry": {"type": "Point", "coordinates": [-96.83745833, 33.04353888]}}, {"type": "Feature", "properties": {"site_no": 24522.04, "id": "1TS4", "name": "EDS HANGAR", "type": "H", "use": "PR", "medical": false, "elev_ft": 660.0}, "geometry": {"type": "Point", "coordinates": [-96.80148333, 33.06784166]}}, {"type": "Feature", "properties": {"site_no": 24522.05, "id": "6TS5", "name": "EDS ADMINISTRATION NR 1", "type": "H", "use": "PR", "medical": false, "elev_ft": 720.0}, "geometry": {"type": "Point", "coordinates": [-96.81419166, 33.07370277]}}, {"type": "Feature", "properties": {"site_no": 24522.07, "id": "XA79", "name": "BAYLOR SCOTT & WHITE MED CTR - PLANO", "type": "H", "use": "PR", "medical": true, "elev_ft": 688.0}, "geometry": {"type": "Point", "coordinates": [-96.78995277, 33.01345277]}}, {"type": "Feature", "properties": {"site_no": 24522.08, "id": "39XA", "name": "CHILDRENS MEDICAL CENTER PLANO", "type": "H", "use": "PR", "medical": true, "elev_ft": 838.0}, "geometry": {"type": "Point", "coordinates": [-96.80010694, 33.07877777]}}, {"type": "Feature", "properties": {"site_no": 24573.41, "id": "43TT", "name": "COOK CHILDREN'S NORTH CAMPUS", "type": "H", "use": "PR", "medical": true, "elev_ft": 592.0}, "geometry": {"type": "Point", "coordinates": [-96.86968888, 33.22135555]}}, {"type": "Feature", "properties": {"site_no": 24606.53, "id": "46XA", "name": "FLYING A", "type": "H", "use": "PR", "medical": false, "elev_ft": 676.0}, "geometry": {"type": "Point", "coordinates": [-97.54815277, 33.04012777]}}, {"type": "Feature", "properties": {"site_no": 24609.28, "id": "XA40", "name": "RICHARDSON RGNL - BUSH HWY", "type": "H", "use": "PR", "medical": true, "elev_ft": 615.0}, "geometry": {"type": "Point", "coordinates": [-96.66561944, 32.99619444]}}, {"type": "Feature", "properties": {"site_no": 24609.29, "id": "TA99", "name": "RICHARDSON RGNL - CAMPBELL ROAD", "type": "H", "use": "PR", "medical": true, "elev_ft": 652.0}, "geometry": {"type": "Point", "coordinates": [-96.72606944, 32.97513333]}}, {"type": "Feature", "properties": {"site_no": 24638.12, "id": "13XS", "name": "PRESBYTERIAN HOSPITAL OF ROCKWALL", "type": "H", "use": "PR", "medical": false, "elev_ft": 532.0}, "geometry": {"type": "Point", "coordinates": [-96.46455833, 32.88453888]}}, {"type": "Feature", "properties": {"site_no": 24663.7, "id": "XA11", "name": "BAYLOR SCOTT & WHITE MEDICAL CENTER - LAKE POINTE", "type": "H", "use": "PR", "medical": true, "elev_ft": 476.0}, "geometry": {"type": "Point", "coordinates": [-96.50846944, 32.917275]}}, {"type": "Feature", "properties": {"site_no": 24664.12, "id": "XS89", "name": "HUNT RGNL MEDICAL CENTER ROYSE CITY", "type": "H", "use": "PR", "medical": true, "elev_ft": 560.0}, "geometry": {"type": "Point", "coordinates": [-96.28203333, 32.97930277]}}, {"type": "Feature", "properties": {"site_no": 24779.01, "id": "51TS", "name": "WILSON N JONES RGNL MEDICAL CENTER", "type": "H", "use": "PR", "medical": true, "elev_ft": 811.0}, "geometry": {"type": "Point", "coordinates": [-96.6243, 33.63721944]}}, {"type": "Feature", "properties": {"site_no": 24779.1, "id": "8TA2", "name": "DEPARTMENT OF PUBLIC SAFETY", "type": "H", "use": "PR", "medical": false, "elev_ft": 725.0}, "geometry": {"type": "Point", "coordinates": [-96.61018055, 33.64942777]}}, {"type": "Feature", "properties": {"site_no": 24827.955, "id": "TS31", "name": "METHODIST SOUTHLAKE", "type": "H", "use": "PR", "medical": true, "elev_ft": 633.3}, "geometry": {"type": "Point", "coordinates": [-97.14708833, 32.95717805]}}, {"type": "Feature", "properties": {"site_no": 24870.0, "id": "TA69", "name": "LUPTON FARMS", "type": "H", "use": "PR", "medical": false, "elev_ft": 500.0}, "geometry": {"type": "Point", "coordinates": [-96.58345, 32.81565555]}}, {"type": "Feature", "properties": {"site_no": 24870.01, "id": "23TE", "name": "TEXAS RGNL MEDICAL CENTER", "type": "H", "use": "PR", "medical": false, "elev_ft": 492.0}, "geometry": {"type": "Point", "coordinates": [-96.56813055, 32.77988888]}}, {"type": "Feature", "properties": {"site_no": 24926.85, "id": "XA69", "name": "SHELTON PVT", "type": "H", "use": "PR", "medical": false, "elev_ft": 1070.0}, "geometry": {"type": "Point", "coordinates": [-97.96944444, 32.33611111]}}, {"type": "Feature", "properties": {"site_no": 24930.02, "id": "TT15", "name": "SKIDS DOWN", "type": "H", "use": "PR", "medical": false, "elev_ft": 672.0}, "geometry": {"type": "Point", "coordinates": [-96.2737185, 33.44935444]}}, {"type": "Feature", "properties": {"site_no": 24986.19, "id": "8TE3", "name": "BAYLOR SCOTT AND WHITE MEDICAL CENTER", "type": "H", "use": "PR", "medical": true, "elev_ft": 668.0}, "geometry": {"type": "Point", "coordinates": [-96.85694444, 32.42722222]}}, {"type": "Feature", "properties": {"site_no": 24988.11, "id": "98TA", "name": "MEDICAL CITY WEATHERFORD", "type": "H", "use": "PR", "medical": true, "elev_ft": 1050.0}, "geometry": {"type": "Point", "coordinates": [-97.78647777, 32.74771666]}}, {"type": "Feature", "properties": {"site_no": 24988.22, "id": "2TS7", "name": "JAMAK FABRICATION", "type": "H", "use": "PR", "medical": false, "elev_ft": 1050.0}, "geometry": {"type": "Point", "coordinates": [-97.809175, 32.77611944]}}, {"type": "Feature", "properties": {"site_no": 24988.23, "id": "TE93", "name": "STAGGS", "type": "H", "use": "PR", "medical": false, "elev_ft": 1050.0}, "geometry": {"type": "Point", "coordinates": [-97.74002777, 32.77179444]}}, {"type": "Feature", "properties": {"site_no": 25038.21, "id": "8TA4", "name": "TEXAS HEALTH WILLOW PARK", "type": "H", "use": "PR", "medical": true, "elev_ft": 856.0}, "geometry": {"type": "Point", "coordinates": [-97.66169444, 32.74522222]}}]}