{"type": "FeatureCollection", "features": [{"type": "Feature", "properties": {"site_no": 23305.54, "rwy": "H1", "id": "XA53", "use": "PR", "type": "H", "elev_ft": 664.0}, "geometry": {"type": "Point", "coordinates": [-96.67231388, 33.11706111]}}, {"type": "Feature", "properties": {"site_no": 23312.01, "rwy": "02/20", "id": "6XS2", "use": "PR", "type": "A", "elev_ft": 725.5}, "geometry": {"type": "LineString", "coordinates": [[-97.19969444, 32.34313888], [-97.19763888, 32.34731944]]}}, {"type": "Feature", "properties": {"site_no": 23312.01, "rwy": "14/32", "id": "6XS2", "use": "PR", "type": "A", "elev_ft": 717.0}, "geometry": {"type": "LineString", "coordinates": [[-97.20052777, 32.34963888], [-97.1965, 32.34431944]]}}, {"type": "Feature", "properties": {"site_no": 23312.05, "rwy": "17/35", "id": "12TA", "use": "PR", "type": "A", "elev_ft": 687.0}, "geometry": {"type": "LineString", "coordinates": [[-97.219542, 32.3814883], [-97.21839722, 32.37413055]]}}, {"type": "Feature", "properties": {"site_no": 23317.02, "rwy": "16/34", "id": "TT21", "use": "PR", "type": "A", "elev_ft": 834.0}, "geometry": {"type": "LineString", "coordinates": [[-97.67168333, 33.29093055], [-97.6704, 33.28723611]]}}, {"type": "Feature", "properties": {"site_no": 23337.9, "rwy": "18/36", "id": "88XA", "use": "PR", "type": "A", "elev_ft": 577.0}, "geometry": {"type": "LineString", "coordinates": [[-96.48022222, 33.34033333], [-96.48022222, 33.33455555]]}}, {"type": "Feature", "properties": {"site_no": 23337.91, "rwy": "18/36", "id": "TT47", "use": "PR", "type": "A", "elev_ft": 666.0}, "geometry": {"type": "LineString", "coordinates": [[-96.49908333, 33.38896666], [-96.49925277, 33.3832]]}}, {"type": "Feature", "properties": {"site_no": 23348.0, "rwy": "05/23", "id": "TX22", "use": "PR", "type": "A", "elev_ft": 669.5}, "geometry": {"type": "LineString", "coordinates": [[-97.16028611, 33.10124722], [-97.15291666, 33.10332777]]}}, {"type": "Feature", "properties": {"site_no": 23348.0, "rwy": "10/28", "id": "TX22", "use": "PR", "type": "A", "elev_ft": 651.0}, "geometry": {"type": "LineString", "coordinates": [[-97.15657777, 33.10229444], [-97.15194444, 33.10180277]]}}, {"type": "Feature", "properties": {"site_no": 23348.01, "rwy": "H1", "id": "TA48", "use": "PR", "type": "H", "elev_ft": 657.0}, "geometry": {"type": "Point", "coordinates": [-97.15386388, 33.127425]}}, {"type": "Feature", "properties": {"site_no": 23348.03, "rwy": "H1", "id": "94TE", "use": "PR", "type": "H", "elev_ft": 632.0}, "geometry": {"type": "Point", "coordinates": [-97.147, 33.098275]}}, {"type": "Feature", "properties": {"site_no": 23352.01, "rwy": "H1", "id": "TE80", "use": "PR", "type": "H", "elev_ft": 664.0}, "geometry": {"type": "Point", "coordinates": [-97.11138888, 32.6925]}}, {"type": "Feature", "properties": {"site_no": 23352.05, "rwy": "H1", "id": "XS54", "use": "PR", "type": "H", "elev_ft": 535.0}, "geometry": {"type": "Point", "coordinates": [-97.08111111, 32.75777777]}}, {"type": "Feature", "properties": {"site_no": 23352.07, "rwy": "H1", "id": "1TX1", "use": "PR", "type": "H", "elev_ft": 565.0}, "geometry": {"type": "Point", "coordinates": [-97.09416666, 32.74527777]}}, {"type": "Feature", "properties": {"site_no": 23352.1, "rwy": "16/34", "id": "GKY", "use": "PU", "type": "A", "elev_ft": 612.55}, "geometry": {"type": "LineString", "coordinates": [[-97.09633019, 32.67204463], [-97.0922315, 32.6556978]]}}, {"type": "Feature", "properties": {"site_no": 23352.22, "rwy": "H1", "id": "65TA", "use": "PR", "type": "H", "elev_ft": 640.0}, "geometry": {"type": "Point", "coordinates": [-97.11737777, 32.74852777]}}, {"type": "Feature", "properties": {"site_no": 23363.0, "rwy": "H1", "id": "TX17", "use": "PR", "type": "H", "elev_ft": 502.7}, "geometry": {"type": "Point", "coordinates": [-95.84622861, 32.16881791]}}, {"type": "Feature", "properties": {"site_no": 23363.0, "rwy": "H2", "id": "TX17", "use": "PR", "type": "H", "elev_ft": 450.0}, "geometry": {"type": "Point", "coordinates": [-95.84807777, 32.17033611]}}, {"type": "Feature", "properties": {"site_no": 23363.03, "rwy": "H1", "id": "XA87", "use": "PR", "type": "H", "elev_ft": 370.0}, "geometry": {"type": "Point", "coordinates": [-95.85032777, 32.07841111]}}, {"type": "Feature", "properties": {"site_no": 23363.1, "rwy": "18/36", "id": "F44", "use": "PU", "type": "A", "elev_ft": 437.6}, "geometry": {"type": "LineString", "coordinates": [[-95.82837905, 32.16934133], [-95.82833719, 32.15837913]]}}, {"type": "Feature", "properties": {"site_no": 23363.37, "rwy": "H1", "id": "TA49", "use": "PR", "type": "H", "elev_ft": 489.0}, "geometry": {"type": "Point", "coordinates": [-95.843465, 32.173191]}}, {"type": "Feature", "properties": {"site_no": 23368.03, "rwy": "H1", "id": "30XA", "use": "PR", "type": "H", "elev_ft": 594.0}, "geometry": {"type": "Point", "coordinates": [-96.91293333, 33.22062777]}}, {"type": "Feature", "properties": {"site_no": 23368.05, "rwy": "18/36", "id": "8XA6", "use": "PR", "type": "A", "elev_ft": 677.5}, "geometry": {"type": "LineString", "coordinates": [[-96.97980555, 33.32186111], [-96.98019444, 33.31225]]}}, {"type": "Feature", "properties": {"site_no": 23382.19, "rwy": "H1", "id": "64TA", "use": "PR", "type": "H", "elev_ft": 677.0}, "geometry": {"type": "Point", "coordinates": [-97.53208333, 32.88]}}, {"type": "Feature", "properties": {"site_no": 23404.8, "rwy": "H1", "id": "TX06", "use": "PR", "type": "H", "elev_ft": 675.0}, "geometry": {"type": "Point", "coordinates": [-97.14070555, 33.07779166]}}, {"type": "Feature", "properties": {"site_no": 23417.71, "rwy": "H1", "id": "TX30", "use": "PR", "type": "H", "elev_ft": 552.0}, "geometry": {"type": "Point", "coordinates": [-97.12261666, 32.83400277]}}, {"type": "Feature", "properties": {"site_no": 23452.0, "rwy": "18/36", "id": "T38", "use": "PU", "type": "A", "elev_ft": 763.0}, "geometry": {"type": "LineString", "coordinates": [[-97.24330555, 33.38025], [-97.243625, 33.37227777]]}}, {"type": "Feature", "properties": {"site_no": 23454.0, "rwy": "17/35", "id": "F00", "use": "PU", "type": "A", "elev_ft": 615.0999999999999}, "geometry": {"type": "LineString", "coordinates": [[-96.17913333, 33.61858333], [-96.17951388, 33.60759583]]}}, {"type": "Feature", "properties": {"site_no": 23469.2, "rwy": "17/35", "id": "0F2", "use": "PU", "type": "A", "elev_ft": 1091.55}, "geometry": {"type": "LineString", "coordinates": [[-97.77614822, 33.60658675], [-97.77498525, 33.59673466]]}}, {"type": "Feature", "properties": {"site_no": 23486.1, "rwy": "18/36", "id": "XBP", "use": "PU", "type": "A", "elev_ft": 836.45}, "geometry": {"type": "LineString", "coordinates": [[-97.8282555, 33.18083511], [-97.82859877, 33.16708433]]}}, {"type": "Feature", "properties": {"site_no": 23513.8, "rwy": "18/36", "id": "93XA", "use": "PR", "type": "A", "elev_ft": 1062.0}, "geometry": {"type": "LineString", "coordinates": [[-98.12019444, 33.512925], [-98.120225, 33.50626111]]}}, {"type": "Feature", "properties": {"site_no": 23518.38, "rwy": "H1", "id": "8TA7", "use": "PR", "type": "H", "elev_ft": 799.0}, "geometry": {"type": "Point", "coordinates": [-97.36879166, 32.49763888]}}, {"type": "Feature", "properties": {"site_no": 23525.0, "rwy": "13/31", "id": "7F3", "use": "PU", "type": "A", "elev_ft": 539.25}, "geometry": {"type": "LineString", "coordinates": [[-96.24555638, 33.040875], [-96.236505, 33.03295527]]}}, {"type": "Feature", "properties": {"site_no": 23525.0, "rwy": "18/36", "id": "7F3", "use": "PU", "type": "A", "elev_ft": 538.3499999999999}, "geometry": {"type": "LineString", "coordinates": [[-96.24513583, 33.041015], [-96.245385, 33.03002305]]}}, {"type": "Feature", "properties": {"site_no": 23543.01, "rwy": "18/36", "id": "38TT", "use": "PR", "type": "A", "elev_ft": 595.5}, "geometry": {"type": "LineString", "coordinates": [[-95.98032777, 33.17152777], [-95.98041666, 33.16411111]]}}, {"type": "Feature", "properties": {"site_no": 23543.02, "rwy": "H1", "id": "XA00", "use": "PR", "type": "H", "elev_ft": 585.0}, "geometry": {"type": "Point", "coordinates": [-95.906205, 33.11614]}}, {"type": "Feature", "properties": {"site_no": 23548.53, "rwy": "13/31", "id": "1TA7", "use": "PR", "type": "A", "elev_ft": 512.0}, "geometry": {"type": "LineString", "coordinates": [[-95.87097222, 32.61826388], [-95.86523611, 32.61340277]]}}, {"type": "Feature", "properties": {"site_no": 23548.55, "rwy": "H1", "id": "XA97", "use": "PR", "type": "H", "elev_ft": 509.0}, "geometry": {"type": "Point", "coordinates": [-95.87370488, 32.5872368]}}, {"type": "Feature", "properties": {"site_no": 23548.56, "rwy": "03/21", "id": "80XA", "use": "PR", "type": "A", "elev_ft": 495.0}, "geometry": {"type": "LineString", "coordinates": [[-95.955563, 32.485894], [-95.953463, 32.489144]]}}, {"type": "Feature", "properties": {"site_no": 23548.57, "rwy": "18/36", "id": "TT73", "use": "PR", "type": "A", "elev_ft": 468.5}, "geometry": {"type": "LineString", "coordinates": [[-95.9475, 32.54388888], [-95.948048, 32.53929]]}}, {"type": "Feature", "properties": {"site_no": 23561.02, "rwy": "H1", "id": "4XS4", "use": "PR", "type": "H", "elev_ft": 572.0}, "geometry": {"type": "Point", "coordinates": [-96.887, 33.02865]}}, {"type": "Feature", "properties": {"site_no": 23575.64, "rwy": "17/35", "id": "T80", "use": "PU", "type": "A", "elev_ft": 741.0}, "geometry": {"type": "LineString", "coordinates": [[-96.72892777, 33.37869166], [-96.72894444, 33.37435]]}}, {"type": "Feature", "properties": {"site_no": 23577.0, "rwy": "18/36", "id": "9S1", "use": "PU", "type": "A", "elev_ft": 783.5}, "geometry": {"type": "LineString", "coordinates": [[-96.75464166, 33.37193333], [-96.75474722, 33.36461944]]}}, {"type": "Feature", "properties": {"site_no": 23577.01, "rwy": "H1", "id": "79TT", "use": "PR", "type": "H", "elev_ft": 666.0}, "geometry": {"type": "Point", "coordinates": [-96.80899166, 33.30606111]}}, {"type": "Feature", "properties": {"site_no": 23617.0, "rwy": "15/33", "id": "CPT", "use": "PU", "type": "A", "elev_ft": 849.3}, "geometry": {"type": "LineString", "coordinates": [[-97.43702169, 32.36107563], [-97.43047216, 32.3464383]]}}, {"type": "Feature", "properties": {"site_no": 23617.19, "rwy": "H1", "id": "4TA9", "use": "PR", "type": "H", "elev_ft": 790.0}, "geometry": {"type": "Point", "coordinates": [-97.43777777, 32.33305555]}}, {"type": "Feature", "properties": {"site_no": 23617.71, "rwy": "15/33", "id": "39TT", "use": "PR", "type": "A", "elev_ft": 877.0}, "geometry": {"type": "LineString", "coordinates": [[-97.30821708, 32.36189097], [-97.305939, 32.358564]]}}, {"type": "Feature", "properties": {"site_no": 23646.1, "rwy": "18/36", "id": "2F7", "use": "PU", "type": "A", "elev_ft": 510.75}, "geometry": {"type": "LineString", "coordinates": [[-95.89611338, 33.29823513], [-95.89670822, 33.28750866]]}}, {"type": "Feature", "properties": {"site_no": 23664.02, "rwy": "H1", "id": "25TE", "use": "PR", "type": "H", "elev_ft": 479.5}, "geometry": {"type": "Point", "coordinates": [-96.50389125, 32.08276777]}}, {"type": "Feature", "properties": {"site_no": 23672.81, "rwy": "17/35", "id": "3XA8", "use": "PR", "type": "A", "elev_ft": 1056.5}, "geometry": {"type": "LineString", "coordinates": [[-97.59474722, 32.51712222], [-97.59476944, 32.51033888]]}}, {"type": "Feature", "properties": {"site_no": 23676.8, "rwy": "H1", "id": "95TE", "use": "PR", "type": "H", "elev_ft": 615.0}, "geometry": {"type": "Point", "coordinates": [-96.99594444, 33.21549722]}}, {"type": "Feature", "properties": {"site_no": 23681.1, "rwy": "H1", "id": "07XS", "use": "PR", "type": "H", "elev_ft": 840.0}, "geometry": {"type": "Point", "coordinates": [-97.39168333, 32.54218333]}}, {"type": "Feature", "properties": {"site_no": 23692.01, "rwy": "18/36", "id": "02TT", "use": "PR", "type": "A", "elev_ft": 564.0}, "geometry": {"type": "LineString", "coordinates": [[-95.86138777, 33.08588883], [-95.861627, 33.079571]]}}, {"type": "Feature", "properties": {"site_no": 23710.12, "rwy": "13/31", "id": "1F7", "use": "PU", "type": "A", "elev_ft": 489.0}, "geometry": {"type": "LineString", "coordinates": [[-96.35502644, 32.81551736], [-96.34903863, 32.81034938]]}}, {"type": "Feature", "properties": {"site_no": 23710.15, "rwy": "H1", "id": "XS97", "use": "PR", "type": "H", "elev_ft": 710.0}, "geometry": {"type": "Point", "coordinates": [-96.87822222, 32.64625]}}, {"type": "Feature", "properties": {"site_no": 23710.18, "rwy": "H1", "id": "49T", "use": "PU", "type": "H", "elev_ft": 480.0}, "geometry": {"type": "Point", "coordinates": [-96.80222777, 32.77146666]}}, {"type": "Feature", "properties": {"site_no": 23710.18, "rwy": "H2", "id": "49T", "use": "PU", "type": "H", "elev_ft": 480.0}, "geometry": {"type": "Point", "coordinates": [-96.80189722, 32.771975]}}, {"type": "Feature", "properties": {"site_no": 23710.2, "rwy": "13/31", "id": "RBD", "use": "PU", "type": "A", "elev_ft": 650.15}, "geometry": {"type": "LineString", "coordinates": [[-96.87800277, 32.68865555], [-96.86162919, 32.67476616]]}}, {"type": "Feature", "properties": {"site_no": 23710.2, "rwy": "17/35", "id": "RBD", "use": "PU", "type": "A", "elev_ft": 654.9000000000001}, "geometry": {"type": "LineString", "coordinates": [[-96.86679163, 32.68579902], [-96.86681963, 32.67535683]]}}, {"type": "Feature", "properties": {"site_no": 23710.21, "rwy": "H1", "id": "TX53", "use": "PR", "type": "H", "elev_ft": 659.0}, "geometry": {"type": "Point", "coordinates": [-96.869062, 32.677539]}}, {"type": "Feature", "properties": {"site_no": 23710.27, "rwy": "H1", "id": "TE43", "use": "PR", "type": "H", "elev_ft": 777.5}, "geometry": {"type": "Point", "coordinates": [-96.83548486, 32.81302958]}}, {"type": "Feature", "properties": {"site_no": 23710.27, "rwy": "H2", "id": "TE43", "use": "PR", "type": "H", "elev_ft": 777.5}, "geometry": {"type": "Point", "coordinates": [-96.83506069, 32.81316875]}}, {"type": "Feature", "properties": {"site_no": 23710.27, "rwy": "H3", "id": "TE43", "use": "PR", "type": "H", "elev_ft": 486.0}, "geometry": {"type": "Point", "coordinates": [-96.8395, 32.80976111]}}, {"type": "Feature", "properties": {"site_no": 23710.29, "rwy": "H1", "id": "XA61", "use": "PR", "type": "H", "elev_ft": 551.0}, "geometry": {"type": "Point", "coordinates": [-96.7801, 32.78833055]}}, {"type": "Feature", "properties": {"site_no": 23710.29, "rwy": "H2", "id": "XA61", "use": "PR", "type": "H", "elev_ft": 551.0}, "geometry": {"type": "Point", "coordinates": [-96.78041388, 32.78849444]}}, {"type": "Feature", "properties": {"site_no": 23710.3, "rwy": "16/34", "id": "ADS", "use": "PU", "type": "A", "elev_ft": 636.25}, "geometry": {"type": "LineString", "coordinates": [[-96.84051319, 32.97784097], [-96.83239402, 32.95926711]]}}, {"type": "Feature", "properties": {"site_no": 23710.31, "rwy": "H1", "id": "TS06", "use": "PR", "type": "H", "elev_ft": 684.1}, "geometry": {"type": "Point", "coordinates": [-96.77357611, 32.91309986]}}, {"type": "Feature", "properties": {"site_no": 23710.31, "rwy": "H2", "id": "TS06", "use": "PR", "type": "H", "elev_ft": 536.1}, "geometry": {"type": "Point", "coordinates": [-96.77529361, 32.91187777]}}, {"type": "Feature", "properties": {"site_no": 23710.33, "rwy": "H1", "id": "37TA", "use": "PR", "type": "H", "elev_ft": 667.0}, "geometry": {"type": "Point", "coordinates": [-96.76286111, 32.88039444]}}, {"type": "Feature", "properties": {"site_no": 23710.35, "rwy": "H1", "id": "TX98", "use": "PR", "type": "H", "elev_ft": 566.0}, "geometry": {"type": "Point", "coordinates": [-96.81171111, 32.88233055]}}, {"type": "Feature", "properties": {"site_no": 23710.38, "rwy": "18/36", "id": "TKI", "use": "PU", "type": "A", "elev_ft": 582.4}, "geometry": {"type": "LineString", "coordinates": [[-96.58834444, 33.18668055], [-96.58918888, 33.16745]]}}, {"type": "Feature", "properties": {"site_no": 23710.4, "rwy": "H1", "id": "XA62", "use": "PR", "type": "H", "elev_ft": 599.0}, "geometry": {"type": "Point", "coordinates": [-96.8244, 32.76048055]}}, {"type": "Feature", "properties": {"site_no": 23710.4, "rwy": "H2", "id": "XA62", "use": "PR", "type": "H", "elev_ft": 599.0}, "geometry": {"type": "Point", "coordinates": [-96.8244, 32.76048055]}}, {"type": "Feature", "properties": {"site_no": 23710.6, "rwy": "13L/31R", "id": "DFW", "use": "PU", "type": "A", "elev_ft": 530.75}, "geometry": {"type": "LineString", "coordinates": [[-97.02147836, 32.91255472], [-97.00084377, 32.89498111]]}}, {"type": "Feature", "properties": {"site_no": 23710.6, "rwy": "13R/31L", "id": "DFW", "use": "PU", "type": "A", "elev_ft": 584.1}, "geometry": {"type": "LineString", "coordinates": [[-97.08313222, 32.90957563], [-97.06327647, 32.89026988]]}}, {"type": "Feature", "properties": {"site_no": 23710.6, "rwy": "17C/35C", "id": "DFW", "use": "PU", "type": "A", "elev_ft": 562.6500000000001}, "geometry": {"type": "LineString", "coordinates": [[-97.02597491, 32.91570669], [-97.02617166, 32.87887877]]}}, {"type": "Feature", "properties": {"site_no": 23710.6, "rwy": "17L/35R", "id": "DFW", "use": "PU", "type": "A", "elev_ft": 549.95}, "geometry": {"type": "LineString", "coordinates": [[-97.00977861, 32.89832038], [-97.00990794, 32.8749593]]}}, {"type": "Feature", "properties": {"site_no": 23710.6, "rwy": "17R/35L", "id": "DFW", "use": "PU", "type": "A", "elev_ft": 565.0}, "geometry": {"type": "LineString", "coordinates": [[-97.0298835, 32.91572211], [-97.03008022, 32.87889452]]}}, {"type": "Feature", "properties": {"site_no": 23710.6, "rwy": "18L/36R", "id": "DFW", "use": "PU", "type": "A", "elev_ft": 588.4}, "geometry": {"type": "LineString", "coordinates": [[-97.05073641, 32.91579958], [-97.05092588, 32.87897144]]}}, {"type": "Feature", "properties": {"site_no": 23710.6, "rwy": "18R/36L", "id": "DFW", "use": "PU", "type": "A", "elev_ft": 594.3}, "geometry": {"type": "LineString", "coordinates": [[-97.05464552, 32.91581319], [-97.05483341, 32.87898591]]}}, {"type": "Feature", "properties": {"site_no": 23713.0, "rwy": "13L/31R", "id": "DAL", "use": "PU", "type": "A", "elev_ft": 481.9}, "geometry": {"type": "LineString", "coordinates": [[-96.85679908, 32.857273], [-96.83915186, 32.84204322]]}}, {"type": "Feature", "properties": {"site_no": 23713.0, "rwy": "13R/31L", "id": "DAL", "use": "PU", "type": "A", "elev_ft": 476.4}, "geometry": {"type": "LineString", "coordinates": [[-96.86345116, 32.85131702], [-96.84341588, 32.83402908]]}}, {"type": "Feature", "properties": {"site_no": 23713.01, "rwy": "H1", "id": "38TX", "use": "PR", "type": "H", "elev_ft": 506.5}, "geometry": {"type": "Point", "coordinates": [-96.85033055, 32.82044722]}}, {"type": "Feature", "properties": {"site_no": 23713.03, "rwy": "H1", "id": "85TS", "use": "PR", "type": "H", "elev_ft": 535.0}, "geometry": {"type": "Point", "coordinates": [-96.76751111, 32.912225]}}, {"type": "Feature", "properties": {"site_no": 23726.0, "rwy": "17/35", "id": "LUD", "use": "PU", "type": "A", "elev_ft": 1039.0500000000002}, "geometry": {"type": "LineString", "coordinates": [[-97.58139113, 33.25996227], [-97.57958588, 33.24851944]]}}, {"type": "Feature", "properties": {"site_no": 23726.11, "rwy": "17/35", "id": "09T", "use": "PU", "type": "A", "elev_ft": 924.5}, "geometry": {"type": "LineString", "coordinates": [[-97.49672805, 33.28351916], [-97.49665861, 33.27912222]]}}, {"type": "Feature", "properties": {"site_no": 23726.13, "rwy": "17/35", "id": "76T", "use": "PU", "type": "A", "elev_ft": 880.5}, "geometry": {"type": "LineString", "coordinates": [[-97.45187658, 33.2742968], [-97.45184894, 33.26404344]]}}, {"type": "Feature", "properties": {"site_no": 23726.14, "rwy": "13/31", "id": "58T", "use": "PU", "type": "A", "elev_ft": 854.5}, "geometry": {"type": "LineString", "coordinates": [[-97.48354597, 33.16875719], [-97.47621263, 33.16328269]]}}, {"type": "Feature", "properties": {"site_no": 23726.18, "rwy": "H1", "id": "XA57", "use": "PR", "type": "H", "elev_ft": 957.0}, "geometry": {"type": "Point", "coordinates": [-97.59693333, 33.21831944]}}, {"type": "Feature", "properties": {"site_no": 23726.21, "rwy": "02/20", "id": "35X", "use": "PU", "type": "A", "elev_ft": 1004.0}, "geometry": {"type": "LineString", "coordinates": [[-97.55443055, 33.25027222], [-97.55267777, 33.25343888]]}}, {"type": "Feature", "properties": {"site_no": 23726.22, "rwy": "01/19", "id": "62TS", "use": "PR", "type": "A", "elev_ft": 758.5}, "geometry": {"type": "LineString", "coordinates": [[-97.52909722, 33.11069444], [-97.52700833, 33.11622222]]}}, {"type": "Feature", "properties": {"site_no": 23726.23, "rwy": "H1", "id": "25TT", "use": "PR", "type": "H", "elev_ft": 899.0}, "geometry": {"type": "Point", "coordinates": [-97.617229, 33.271024]}}, {"type": "Feature", "properties": {"site_no": 23726.24, "rwy": "02/20", "id": "67TT", "use": "PR", "type": "A", "elev_ft": 880.5}, "geometry": {"type": "LineString", "coordinates": [[-97.44755555, 33.34413888], [-97.44166388, 33.35364722]]}}, {"type": "Feature", "properties": {"site_no": 23749.02, "rwy": "H1", "id": "TS58", "use": "PR", "type": "H", "elev_ft": 625.0}, "geometry": {"type": "Point", "coordinates": [-97.09280611, 33.17800708]}}, {"type": "Feature", "properties": {"site_no": 23749.04, "rwy": "H1", "id": "TX50", "use": "PR", "type": "H", "elev_ft": 861.0}, "geometry": {"type": "Point", "coordinates": [-97.167475, 33.21831111]}}, {"type": "Feature", "properties": {"site_no": 23749.04, "rwy": "H2", "id": "TX50", "use": "PR", "type": "H", "elev_ft": 691.0}, "geometry": {"type": "Point", "coordinates": [-97.16898611, 33.21775555]}}, {"type": "Feature", "properties": {"site_no": 23750.0, "rwy": "18L/36R", "id": "DTO", "use": "PU", "type": "A", "elev_ft": 633.15}, "geometry": {"type": "LineString", "coordinates": [[-97.19773772, 33.21171758], [-97.19816241, 33.19247838]]}}, {"type": "Feature", "properties": {"site_no": 23750.0, "rwy": "18R/36L", "id": "DTO", "use": "PU", "type": "A", "elev_ft": 635.0999999999999}, "geometry": {"type": "LineString", "coordinates": [[-97.20055444, 33.20864136], [-97.20085252, 33.19489516]]}}, {"type": "Feature", "properties": {"site_no": 23759.7, "rwy": "H1", "id": "73T", "use": "PU", "type": "H", "elev_ft": 648.5}, "geometry": {"type": "Point", "coordinates": [-96.85522777, 32.63166111]}}, {"type": "Feature", "properties": {"site_no": 23771.0, "rwy": "17/35", "id": "X65", "use": "PU", "type": "A", "elev_ft": 845.7}, "geometry": {"type": "LineString", "coordinates": [[-96.68043833, 33.54068363], [-96.68039586, 33.53189563]]}}, {"type": "Feature", "properties": {"site_no": 23831.51, "rwy": "H1", "id": "12TE", "use": "PR", "type": "H", "elev_ft": 492.0}, "geometry": {"type": "Point", "coordinates": [-95.781461, 32.884745]}}, {"type": "Feature", "properties": {"site_no": 23836.1, "rwy": "16/34", "id": "F41", "use": "PU", "type": "A", "elev_ft": 488.6}, "geometry": {"type": "LineString", "coordinates": [[-96.66596119, 32.3349258], [-96.66183727, 32.32447008]]}}, {"type": "Feature", "properties": {"site_no": 23836.11, "rwy": "04/22", "id": "TE40", "use": "PR", "type": "A", "elev_ft": 474.65}, "geometry": {"type": "LineString", "coordinates": [[-96.61212291, 32.40657272], [-96.60977777, 32.40895833]]}}, {"type": "Feature", "properties": {"site_no": 23838.0, "rwy": "08/26", "id": "TX94", "use": "PR", "type": "A", "elev_ft": 875.5}, "geometry": {"type": "LineString", "coordinates": [[-97.279675, 33.45279444], [-97.27148333, 33.45257222]]}}, {"type": "Feature", "properties": {"site_no": 23838.01, "rwy": "17/35", "id": "TE39", "use": "PR", "type": "A", "elev_ft": 878.0}, "geometry": {"type": "LineString", "coordinates": [[-97.27255555, 33.44501666], [-97.27219722, 33.43952777]]}}, {"type": "Feature", "properties": {"site_no": 23842.6, "rwy": "H1", "id": "6TA1", "use": "PR", "type": "H", "elev_ft": 530.0}, "geometry": {"type": "Point", "coordinates": [-95.87280833, 32.35662222]}}, {"type": "Feature", "properties": {"site_no": 23853.92, "rwy": "16/34", "id": "0TX7", "use": "PR", "type": "A", "elev_ft": 590.0}, "geometry": {"type": "LineString", "coordinates": [[-96.39061111, 33.09461111], [-96.38944444, 33.09127777]]}}, {"type": "Feature", "properties": {"site_no": 23856.0, "rwy": "H1", "id": "12T", "use": "PU", "type": "H", "elev_ft": 510.0}, "geometry": {"type": "Point", "coordinates": [-96.73116111, 32.52986111]}}, {"type": "Feature", "properties": {"site_no": 23887.0, "rwy": "16/34", "id": "FTW", "use": "PU", "type": "A", "elev_ft": 692.05}, "geometry": {"type": "LineString", "coordinates": [[-97.36248661, 32.83017711], [-97.35904777, 32.80976566]]}}, {"type": "Feature", "properties": {"site_no": 23887.0, "rwy": "17/35", "id": "FTW", "use": "PU", "type": "A", "elev_ft": 667.7}, "geometry": {"type": "LineString", "coordinates": [[-97.36651977, 32.8248395], [-97.36468447, 32.81394763]]}}, {"type": "Feature", "properties": {"site_no": 23887.0, "rwy": "H1", "id": "FTW", "use": "PU", "type": "A", "elev_ft": 710.1}, "geometry": {"type": "Point", "coordinates": [-97.36656388, 32.81923888]}}, {"type": "Feature", "properties": {"site_no": 23887.0, "rwy": "H2", "id": "FTW", "use": "PU", "type": "A", "elev_ft": 668.7}, "geometry": {"type": "Point", "coordinates": [-97.36640833, 32.81832777]}}, {"type": "Feature", "properties": {"site_no": 23887.03, "rwy": "H1", "id": "51TA", "use": "PR", "type": "H", "elev_ft": 744.0}, "geometry": {"type": "Point", "coordinates": [-97.42168333, 32.65692777]}}, {"type": "Feature", "properties": {"site_no": 23887.04, "rwy": "H1", "id": "1XS3", "use": "PR", "type": "H", "elev_ft": 756.0}, "geometry": {"type": "Point", "coordinates": [-97.32611111, 32.7275]}}, {"type": "Feature", "properties": {"site_no": 23887.09, "rwy": "H1", "id": "TS56", "use": "PR", "type": "H", "elev_ft": 595.0}, "geometry": {"type": "Point", "coordinates": [-97.24541944, 32.76179444]}}, {"type": "Feature", "properties": {"site_no": 23887.11, "rwy": "17/35", "id": "50F", "use": "PU", "type": "A", "elev_ft": 854.9000000000001}, "geometry": {"type": "LineString", "coordinates": [[-97.59175861, 32.58734205], [-97.5898015, 32.57633966]]}}, {"type": "Feature", "properties": {"site_no": 23887.13, "rwy": "H1", "id": "XS96", "use": "PR", "type": "H", "elev_ft": 650.0}, "geometry": {"type": "Point", "coordinates": [-97.30884722, 32.97645]}}, {"type": "Feature", "properties": {"site_no": 23887.14, "rwy": "H1", "id": "5TX9", "use": "PR", "type": "H", "elev_ft": 675.0}, "geometry": {"type": "Point", "coordinates": [-97.31323333, 32.89611666]}}, {"type": "Feature", "properties": {"site_no": 23887.2, "rwy": "17/35", "id": "4T2", "use": "PU", "type": "A", "elev_ft": 673.8}, "geometry": {"type": "LineString", "coordinates": [[-97.49306947, 32.98577247], [-97.49151783, 32.96949097]]}}, {"type": "Feature", "properties": {"site_no": 23887.21, "rwy": "H1", "id": "TE30", "use": "PR", "type": "H", "elev_ft": 750.0}, "geometry": {"type": "Point", "coordinates": [-97.33823611, 32.73701111]}}, {"type": "Feature", "properties": {"site_no": 23887.21, "rwy": "H2", "id": "TE30", "use": "PR", "type": "H", "elev_ft": 753.0}, "geometry": {"type": "Point", "coordinates": [-97.33825833, 32.73687222]}}, {"type": "Feature", "properties": {"site_no": 23887.21, "rwy": "H3", "id": "TE30", "use": "PR", "type": "H", "elev_ft": 753.0}, "geometry": {"type": "Point", "coordinates": [-97.33825277, 32.73670083]}}, {"type": "Feature", "properties": {"site_no": 23887.21, "rwy": "H4", "id": "TE30", "use": "PR", "type": "H", "elev_ft": 631.0}, "geometry": {"type": "Point", "coordinates": [-97.338997, 32.73399166]}}, {"type": "Feature", "properties": {"site_no": 23887.21, "rwy": "H5", "id": "TE30", "use": "PR", "type": "H", "elev_ft": 631.0}, "geometry": {"type": "Point", "coordinates": [-97.338997, 32.733738]}}, {"type": "Feature", "properties": {"site_no": 23887.24, "rwy": "H1", "id": "XA18", "use": "PR", "type": "H", "elev_ft": 689.0}, "geometry": {"type": "Point", "coordinates": [-97.34621111, 32.73108611]}}, {"type": "Feature", "properties": {"site_no": 23887.31, "rwy": "H1", "id": "3XS7", "use": "PR", "type": "H", "elev_ft": 657.0}, "geometry": {"type": "Point", "coordinates": [-97.29507222, 33.04908055]}}, {"type": "Feature", "properties": {"site_no": 23887.31, "rwy": "H2", "id": "3XS7", "use": "PR", "type": "H", "elev_ft": 657.0}, "geometry": {"type": "Point", "coordinates": [-97.2903, 33.04933611]}}, {"type": "Feature", "properties": {"site_no": 23887.31, "rwy": "H3", "id": "3XS7", "use": "PR", "type": "H", "elev_ft": 657.0}, "geometry": {"type": "Point", "coordinates": [-97.292625, 33.04731944]}}, {"type": "Feature", "properties": {"site_no": 23887.4, "rwy": "17/35", "id": "9F9", "use": "PU", "type": "A", "elev_ft": 761.0}, "geometry": {"type": "LineString", "coordinates": [[-97.35384722, 32.63166666], [-97.35416666, 32.62238888]]}}, {"type": "Feature", "properties": {"site_no": 23887.6, "rwy": "H1", "id": "93TX", "use": "PR", "type": "H", "elev_ft": 750.0}, "geometry": {"type": "Point", "coordinates": [-97.32658333, 32.726975]}}, {"type": "Feature", "properties": {"site_no": 23887.7, "rwy": "15/33", "id": "2TE2", "use": "PR", "type": "A", "elev_ft": 720.0}, "geometry": {"type": "LineString", "coordinates": [[-97.53634166, 32.83292777], [-97.53354444, 32.82560555]]}}, {"type": "Feature", "properties": {"site_no": 23889.19, "rwy": "H1", "id": "0TA3", "use": "PR", "type": "H", "elev_ft": 782.0}, "geometry": {"type": "Point", "coordinates": [-97.30893888, 32.93012777]}}, {"type": "Feature", "properties": {"site_no": 23895.0, "rwy": "18/36", "id": "NFW", "use": "PR", "type": "A", "elev_ft": 635.7}, "geometry": {"type": "LineString", "coordinates": [[-97.44135583, 32.78567583], [-97.44171333, 32.75269638]]}}, {"type": "Feature", "properties": {"site_no": 23895.02, "rwy": "H1", "id": "XS04", "use": "PR", "type": "H", "elev_ft": 473.0}, "geometry": {"type": "Point", "coordinates": [-97.14606666, 32.79700555]}}, {"type": "Feature", "properties": {"site_no": 23895.11, "rwy": "18L/36R", "id": "FWS", "use": "PU", "type": "A", "elev_ft": 694.6}, "geometry": {"type": "LineString", "coordinates": [[-97.30641666, 32.57158611], [-97.30641666, 32.56152777]]}}, {"type": "Feature", "properties": {"site_no": 23895.11, "rwy": "18R/36L", "id": "FWS", "use": "PU", "type": "A", "elev_ft": 694.75}, "geometry": {"type": "LineString", "coordinates": [[-97.30965416, 32.57251444], [-97.30969111, 32.55601722]]}}, {"type": "Feature", "properties": {"site_no": 23895.12, "rwy": "H1", "id": "XA36", "use": "PR", "type": "H", "elev_ft": 707.0}, "geometry": {"type": "Point", "coordinates": [-97.34171111, 32.73813611]}}, {"type": "Feature", "properties": {"site_no": 23895.12, "rwy": "H2", "id": "XA36", "use": "PR", "type": "H", "elev_ft": 707.0}, "geometry": {"type": "Point", "coordinates": [-97.34135833, 32.73813333]}}, {"type": "Feature", "properties": {"site_no": 23895.13, "rwy": "H1", "id": "XA37", "use": "PR", "type": "H", "elev_ft": 607.0}, "geometry": {"type": "Point", "coordinates": [-97.3442, 32.73475]}}, {"type": "Feature", "properties": {"site_no": 23895.3, "rwy": "16L/34R", "id": "AFW", "use": "PU", "type": "A", "elev_ft": 693.6500000000001}, "geometry": {"type": "LineString", "coordinates": [[-97.32152625, 33.00542808], [-97.31542877, 32.97563747]]}}, {"type": "Feature", "properties": {"site_no": 23895.3, "rwy": "16R/34L", "id": "AFW", "use": "PU", "type": "A", "elev_ft": 692.95}, "geometry": {"type": "LineString", "coordinates": [[-97.32345544, 33.00514797], [-97.31728802, 32.9750185]]}}, {"type": "Feature", "properties": {"site_no": 23895.5, "rwy": "H1", "id": "TA92", "use": "PR", "type": "H", "elev_ft": 774.0}, "geometry": {"type": "Point", "coordinates": [-97.30972777, 32.91959444]}}, {"type": "Feature", "properties": {"site_no": 23895.51, "rwy": "H1", "id": "XA65", "use": "PR", "type": "H", "elev_ft": 700.0}, "geometry": {"type": "Point", "coordinates": [-97.31280555, 32.90033888]}}, {"type": "Feature", "properties": {"site_no": 23895.52, "rwy": "H1", "id": "89TE", "use": "PR", "type": "H", "elev_ft": 690.0}, "geometry": {"type": "Point", "coordinates": [-97.34609347, 32.73593472]}}, {"type": "Feature", "properties": {"site_no": 23895.53, "rwy": "H1", "id": "97XA", "use": "PR", "type": "H", "elev_ft": 886.0}, "geometry": {"type": "Point", "coordinates": [-97.51235277, 32.69906944]}}, {"type": "Feature", "properties": {"site_no": 23895.54, "rwy": "H1", "id": "56XA", "use": "PR", "type": "H", "elev_ft": 685.0}, "geometry": {"type": "Point", "coordinates": [-97.31849444, 32.58762222]}}, {"type": "Feature", "properties": {"site_no": 23908.08, "rwy": "H1", "id": "13TA", "use": "PR", "type": "H", "elev_ft": 646.0}, "geometry": {"type": "Point", "coordinates": [-96.83846666, 33.18079722]}}, {"type": "Feature", "properties": {"site_no": 23908.52, "rwy": "H1", "id": "29TA", "use": "PR", "type": "H", "elev_ft": 625.0}, "geometry": {"type": "Point", "coordinates": [-96.83845833, 33.15203333]}}, {"type": "Feature", "properties": {"site_no": 23908.53, "rwy": "H1", "id": "53TS", "use": "PR", "type": "H", "elev_ft": 643.0}, "geometry": {"type": "Point", "coordinates": [-96.81476111, 33.20994166]}}, {"type": "Feature", "properties": {"site_no": 23908.54, "rwy": "H1", "id": "45XA", "use": "PR", "type": "H", "elev_ft": 740.0}, "geometry": {"type": "Point", "coordinates": [-96.77153333, 33.11299166]}}, {"type": "Feature", "properties": {"site_no": 23908.845, "rwy": "02/20", "id": "TT66", "use": "PR", "type": "A", "elev_ft": 527.0}, "geometry": {"type": "LineString", "coordinates": [[-96.8106, 32.10477777], [-96.80643888, 32.11145833]]}}, {"type": "Feature", "properties": {"site_no": 23911.0, "rwy": "13/31", "id": "GLE", "use": "PU", "type": "A", "elev_ft": 809.25}, "geometry": {"type": "LineString", "coordinates": [[-97.1991358, 33.65509791], [-97.18873761, 33.64706975]]}}, {"type": "Feature", "properties": {"site_no": 23911.0, "rwy": "18/36", "id": "GLE", "use": "PU", "type": "A", "elev_ft": 818.9}, "geometry": {"type": "LineString", "coordinates": [[-97.19947655, 33.66124422], [-97.19986375, 33.6447603]]}}, {"type": "Feature", "properties": {"site_no": 23911.02, "rwy": "H1", "id": "8TX9", "use": "PR", "type": "H", "elev_ft": 780.0}, "geometry": {"type": "Point", "coordinates": [-97.163525, 33.645475]}}, {"type": "Feature", "properties": {"site_no": 23913.0, "rwy": "02/20", "id": "12TT", "use": "PR", "type": "A", "elev_ft": 763.5}, "geometry": {"type": "LineString", "coordinates": [[-97.10256111, 33.59068888], [-97.09896666, 33.59680555]]}}, {"type": "Feature", "properties": {"site_no": 23913.01, "rwy": "05/23", "id": "07TE", "use": "PR", "type": "A", "elev_ft": 723.0}, "geometry": {"type": "LineString", "coordinates": [[-97.03310861, 33.54313361], [-97.03006555, 33.54501861]]}}, {"type": "Feature", "properties": {"site_no": 23925.0, "rwy": "H1", "id": "T57", "use": "PU", "type": "H", "elev_ft": 601.0}, "geometry": {"type": "Point", "coordinates": [-96.68501666, 32.88691666]}}, {"type": "Feature", "properties": {"site_no": 23925.0, "rwy": "H2", "id": "T57", "use": "PU", "type": "H", "elev_ft": 601.0}, "geometry": {"type": "Point", "coordinates": [-96.68552222, 32.8864]}}, {"type": "Feature", "properties": {"site_no": 23925.14, "rwy": "H1", "id": "90TA", "use": "PR", "type": "H", "elev_ft": 460.0}, "geometry": {"type": "Point", "coordinates": [-96.54081944, 32.86696666]}}, {"type": "Feature", "properties": {"site_no": 23948.1, "rwy": "18/36", "id": "TA35", "use": "PR", "type": "A", "elev_ft": 917.5}, "geometry": {"type": "LineString", "coordinates": [[-97.84170369, 32.20526861], [-97.842995, 32.19568938]]}}, {"type": "Feature", "properties": {"site_no": 23948.27, "rwy": "H1", "id": "XA54", "use": "PR", "type": "H", "elev_ft": 825.0}, "geometry": {"type": "Point", "coordinates": [-97.746, 32.2422]}}, {"type": "Feature", "properties": {"site_no": 23949.55, "rwy": "17/35", "id": "35TT", "use": "PR", "type": "A", "elev_ft": 970.5}, "geometry": {"type": "LineString", "coordinates": [[-97.50149444, 32.47643611], [-97.50182777, 32.47064166]]}}, {"type": "Feature", "properties": {"site_no": 23965.1, "rwy": "01/19", "id": "GDJ", "use": "PU", "type": "A", "elev_ft": 809.1}, "geometry": {"type": "LineString", "coordinates": [[-97.82691255, 32.43530486], [-97.82198555, 32.44897413]]}}, {"type": "Feature", "properties": {"site_no": 23965.14, "rwy": "17/35", "id": "66TE", "use": "PR", "type": "A", "elev_ft": 694.0}, "geometry": {"type": "LineString", "coordinates": [[-97.64558333, 32.36975277], [-97.64443888, 32.36128888]]}}, {"type": "Feature", "properties": {"site_no": 23965.31, "rwy": "01/19", "id": "0TX1", "use": "PR", "type": "A", "elev_ft": 697.0}, "geometry": {"type": "LineString", "coordinates": [[-97.67721388, 32.34880277], [-97.67508611, 32.358575]]}}, {"type": "Feature", "properties": {"site_no": 23965.32, "rwy": "08/26", "id": "TA90", "use": "PR", "type": "A", "elev_ft": 1009.0}, "geometry": {"type": "LineString", "coordinates": [[-97.818811, 32.379254], [-97.812164, 32.379458]]}}, {"type": "Feature", "properties": {"site_no": 23969.01, "rwy": "18/36", "id": "GPM", "use": "PU", "type": "A", "elev_ft": 577.15}, "geometry": {"type": "LineString", "coordinates": [[-97.04687788, 32.70428116], [-97.04695538, 32.69328416]]}}, {"type": "Feature", "properties": {"site_no": 23969.01, "rwy": "H1", "id": "GPM", "use": "PU", "type": "A", "elev_ft": 590.0}, "geometry": {"type": "Point", "coordinates": [-97.04783333, 32.70216666]}}, {"type": "Feature", "properties": {"site_no": 23969.02, "rwy": "H1", "id": "0TX2", "use": "PR", "type": "H", "elev_ft": 546.0}, "geometry": {"type": "Point", "coordinates": [-97.06094166, 32.77605277]}}, {"type": "Feature", "properties": {"site_no": 23969.08, "rwy": "H1", "id": "56TA", "use": "PR", "type": "H", "elev_ft": 578.0}, "geometry": {"type": "Point", "coordinates": [-97.05042777, 32.73291666]}}, {"type": "Feature", "properties": {"site_no": 23974.3, "rwy": "H1", "id": "78TX", "use": "PR", "type": "H", "elev_ft": 714.0}, "geometry": {"type": "Point", "coordinates": [-97.09535, 32.93412222]}}, {"type": "Feature", "properties": {"site_no": 23985.0, "rwy": "17/35", "id": "GVT", "use": "PU", "type": "A", "elev_ft": 521.95}, "geometry": {"type": "LineString", "coordinates": [[-96.06515527, 33.07887533], [-96.06548875, 33.0568085]]}}, {"type": "Feature", "properties": {"site_no": 23985.03, "rwy": "18/36", "id": "0TX9", "use": "PR", "type": "A", "elev_ft": 612.5}, "geometry": {"type": "LineString", "coordinates": [[-96.116153, 33.263741], [-96.11643208, 33.2587998]]}}, {"type": "Feature", "properties": {"site_no": 23985.05, "rwy": "H1", "id": "XA56", "use": "PR", "type": "H", "elev_ft": 579.0}, "geometry": {"type": "Point", "coordinates": [-96.1251, 33.12228888]}}, {"type": "Feature", "properties": {"site_no": 23985.12, "rwy": "H1", "id": "XA35", "use": "PR", "type": "H", "elev_ft": 547.0}, "geometry": {"type": "Point", "coordinates": [-96.12650555, 33.08933611]}}, {"type": "Feature", "properties": {"site_no": 23985.13, "rwy": "H1", "id": "53TX", "use": "PR", "type": "H", "elev_ft": 521.0}, "geometry": {"type": "Point", "coordinates": [-96.149562, 33.064243]}}, {"type": "Feature", "properties": {"site_no": 23997.5, "rwy": "H1", "id": "8TX1", "use": "PR", "type": "H", "elev_ft": 395.0}, "geometry": {"type": "Point", "coordinates": [-96.11638611, 32.335525]}}, {"type": "Feature", "properties": {"site_no": 23997.51, "rwy": "H1", "id": "TS72", "use": "PR", "type": "H", "elev_ft": 393.8}, "geometry": {"type": "Point", "coordinates": [-96.11583333, 32.33203597]}}, {"type": "Feature", "properties": {"site_no": 24028.105, "rwy": "H1", "id": "XS37", "use": "PR", "type": "H", "elev_ft": 448.0}, "geometry": {"type": "Point", "coordinates": [-96.492625, 32.8181]}}, {"type": "Feature", "properties": {"site_no": 24057.9, "rwy": "16/34", "id": "INJ", "use": "PU", "type": "A", "elev_ft": 680.6}, "geometry": {"type": "LineString", "coordinates": [[-97.09922833, 32.08885697], [-97.09525427, 32.0783993]]}}, {"type": "Feature", "properties": {"site_no": 24062.12, "rwy": "02/20", "id": "XA81", "use": "PR", "type": "A", "elev_ft": 605.0}, "geometry": {"type": "LineString", "coordinates": [[-95.87823333, 33.639125], [-95.87421111, 33.64694444]]}}, {"type": "Feature", "properties": {"site_no": 24083.01, "rwy": "18/36", "id": "T47", "use": "PU", "type": "A", "elev_ft": 827.5}, "geometry": {"type": "LineString", "coordinates": [[-96.64948, 33.538556], [-96.64958, 33.531552]]}}, {"type": "Feature", "properties": {"site_no": 24092.2, "rwy": "H1", "id": "0TE2", "use": "PR", "type": "H", "elev_ft": 516.0}, "geometry": {"type": "Point", "coordinates": [-97.16406388, 32.806425]}}, {"type": "Feature", "properties": {"site_no": 24104.24, "rwy": "H1", "id": "XA21", "use": "PR", "type": "H", "elev_ft": 502.0}, "geometry": {"type": "Point", "coordinates": [-96.95683055, 32.90279444]}}, {"type": "Feature", "properties": {"site_no": 24104.25, "rwy": "H1", "id": "4XA7", "use": "PR", "type": "H", "elev_ft": 527.0}, "geometry": {"type": "Point", "coordinates": [-96.95246944, 32.91296666]}}, {"type": "Feature", "properties": {"site_no": 24104.28, "rwy": "H1", "id": "19XA", "use": "PR", "type": "H", "elev_ft": 510.0}, "geometry": {"type": "Point", "coordinates": [-96.96195, 32.83441666]}}, {"type": "Feature", "properties": {"site_no": 24137.611, "rwy": "17/35", "id": "16X", "use": "PU", "type": "A", "elev_ft": 802.0}, "geometry": {"type": "LineString", "coordinates": [[-97.35838558, 33.084732], [-97.35843519, 33.07648516]]}}, {"type": "Feature", "properties": {"site_no": 24137.622, "rwy": "16/34", "id": "7XA2", "use": "PR", "type": "A", "elev_ft": 810.0}, "geometry": {"type": "LineString", "coordinates": [[-97.37496666, 33.15278333], [-97.37306111, 33.14498333]]}}, {"type": "Feature", "properties": {"site_no": 24137.623, "rwy": "17/35", "id": "3T6", "use": "PU", "type": "A", "elev_ft": 699.0}, "geometry": {"type": "LineString", "coordinates": [[-97.29699094, 33.13607105], [-97.29704197, 33.13112311]]}}, {"type": "Feature", "properties": {"site_no": 24137.68, "rwy": "18/36", "id": "XA0", "use": "PU", "type": "A", "elev_ft": 677.5}, "geometry": {"type": "LineString", "coordinates": [[-97.28, 33.15044444], [-97.28005555, 33.14588888]]}}, {"type": "Feature", "properties": {"site_no": 24137.71, "rwy": "14/32", "id": "XA49", "use": "PR", "type": "A", "elev_ft": 659.5}, "geometry": {"type": "LineString", "coordinates": [[-97.26944444, 33.09226666], [-97.2663, 33.08862777]]}}, {"type": "Feature", "properties": {"site_no": 24141.03, "rwy": "09/27", "id": "XA42", "use": "PR", "type": "A", "elev_ft": 341.5}, "geometry": {"type": "LineString", "coordinates": [[-96.38968333, 32.37577777], [-96.38195277, 32.37561666]]}}, {"type": "Feature", "properties": {"site_no": 24141.19, "rwy": "H1", "id": "XA55", "use": "PR", "type": "H", "elev_ft": 434.0}, "geometry": {"type": "Point", "coordinates": [-96.31765277, 32.59238888]}}, {"type": "Feature", "properties": {"site_no": 24155.11, "rwy": "H1", "id": "XS17", "use": "PR", "type": "H", "elev_ft": 354.0}, "geometry": {"type": "Point", "coordinates": [-96.307797, 32.081855]}}, {"type": "Feature", "properties": {"site_no": 24177.54, "rwy": "18/36", "id": "E58", "use": "PU", "type": "A", "elev_ft": 892.0}, "geometry": {"type": "LineString", "coordinates": [[-97.34705833, 33.31034444], [-97.34719722, 33.30256666]]}}, {"type": "Feature", "properties": {"site_no": 24180.3, "rwy": "18L/36R", "id": "30F", "use": "PU", "type": "A", "elev_ft": 532.5}, "geometry": {"type": "LineString", "coordinates": [[-97.01394186, 33.13494463], [-97.01446936, 33.12781113]]}}, {"type": "Feature", "properties": {"site_no": 24189.6, "rwy": "13/31", "id": "LNC", "use": "PU", "type": "A", "elev_ft": 488.20000000000005}, "geometry": {"type": "LineString", "coordinates": [[-96.72424166, 32.58448055], [-96.71076666, 32.57073333]]}}, {"type": "Feature", "properties": {"site_no": 24208.21, "rwy": "H1", "id": "XA59", "use": "PR", "type": "H", "elev_ft": 546.0}, "geometry": {"type": "Point", "coordinates": [-97.0053, 33.04408888]}}, {"type": "Feature", "properties": {"site_no": 24219.6, "rwy": "17/35", "id": "7T0", "use": "PU", "type": "A", "elev_ft": 880.0}, "geometry": {"type": "LineString", "coordinates": [[-97.21878263, 33.59691944], [-97.21897358, 33.59032438]]}}, {"type": "Feature", "properties": {"site_no": 24248.0, "rwy": "H1", "id": "XA63", "use": "PR", "type": "H", "elev_ft": 615.0}, "geometry": {"type": "Point", "coordinates": [-96.5925, 33.09083333]}}, {"type": "Feature", "properties": {"site_no": 24248.01, "rwy": "14/32", "id": "15TT", "use": "PR", "type": "A", "elev_ft": 540.0}, "geometry": {"type": "LineString", "coordinates": [[-96.552591, 33.117135], [-96.55078055, 33.11531111]]}}, {"type": "Feature", "properties": {"site_no": 24248.02, "rwy": "H1", "id": "31TT", "use": "PR", "type": "H", "elev_ft": 610.0}, "geometry": {"type": "Point", "coordinates": [-96.59844444, 33.0995]}}, {"type": "Feature", "properties": {"site_no": 24272.01, "rwy": "H1", "id": "TE66", "use": "PR", "type": "H", "elev_ft": 708.0}, "geometry": {"type": "Point", "coordinates": [-96.632525, 33.21398055]}}, {"type": "Feature", "properties": {"site_no": 24272.05, "rwy": "04/22", "id": "XS42", "use": "PR", "type": "A", "elev_ft": 652.5}, "geometry": {"type": "LineString", "coordinates": [[-96.519, 33.26405555], [-96.51444444, 33.26869444]]}}, {"type": "Feature", "properties": {"site_no": 24272.16, "rwy": "H1", "id": "6XA7", "use": "PR", "type": "H", "elev_ft": 631.0}, "geometry": {"type": "Point", "coordinates": [-96.68347777, 33.22034444]}}, {"type": "Feature", "properties": {"site_no": 24272.19, "rwy": "H1", "id": "51XA", "use": "PR", "type": "H", "elev_ft": 670.0}, "geometry": {"type": "Point", "coordinates": [-96.63637383, 33.16097383]}}, {"type": "Feature", "properties": {"site_no": 24285.63, "rwy": "H1", "id": "0XA9", "use": "PR", "type": "H", "elev_ft": 633.0}, "geometry": {"type": "Point", "coordinates": [-97.09558888, 32.567225]}}, {"type": "Feature", "properties": {"site_no": 24285.73, "rwy": "H1", "id": "XA64", "use": "PR", "type": "H", "elev_ft": 638.0}, "geometry": {"type": "Point", "coordinates": [-97.10013888, 32.53602777]}}, {"type": "Feature", "properties": {"site_no": 24285.74, "rwy": "H1", "id": "52TE", "use": "PR", "type": "H", "elev_ft": 730.0}, "geometry": {"type": "Point", "coordinates": [-97.202332, 32.605665]}}, {"type": "Feature", "properties": {"site_no": 24344.51, "rwy": "17/35", "id": "TE44", "use": "PR", "type": "A", "elev_ft": 635.0}, "geometry": {"type": "LineString", "coordinates": [[-96.28919444, 33.24577777], [-96.28813888, 33.23872222]]}}, {"type": "Feature", "properties": {"site_no": 24344.52, "rwy": "10/28", "id": "TT99", "use": "PR", "type": "A", "elev_ft": 612.5}, "geometry": {"type": "LineString", "coordinates": [[-96.22423055, 33.19256111], [-96.21545277, 33.19155555]]}}, {"type": "Feature", "properties": {"site_no": 24346.41, "rwy": "H1", "id": "TA94", "use": "PR", "type": "H", "elev_ft": 420.0}, "geometry": {"type": "Point", "coordinates": [-96.55717777, 32.71109166]}}, {"type": "Feature", "properties": {"site_no": 24346.42, "rwy": "H1", "id": "2TA2", "use": "PR", "type": "H", "elev_ft": 506.0}, "geometry": {"type": "Point", "coordinates": [-96.60112222, 32.77922222]}}, {"type": "Feature", "properties": {"site_no": 24346.5, "rwy": "18/36", "id": "HQZ", "use": "PU", "type": "A", "elev_ft": 443.95}, "geometry": {"type": "LineString", "coordinates": [[-96.53026916, 32.75520583], [-96.53057, 32.73871916]]}}, {"type": "Feature", "properties": {"site_no": 24353.52, "rwy": "17/35", "id": "T56", "use": "PU", "type": "A", "elev_ft": 763.5}, "geometry": {"type": "LineString", "coordinates": [[-96.9267725, 32.5172325], [-96.92678111, 32.50839194]]}}, {"type": "Feature", "properties": {"site_no": 24353.53, "rwy": "H1", "id": "32XS", "use": "PR", "type": "H", "elev_ft": 750.0}, "geometry": {"type": "Point", "coordinates": [-97.0087, 32.46150555]}}, {"type": "Feature", "properties": {"site_no": 24353.54, "rwy": "H1", "id": "87XA", "use": "PR", "type": "H", "elev_ft": 761.0}, "geometry": {"type": "Point", "coordinates": [-96.98081111, 32.46970555]}}, {"type": "Feature", "properties": {"site_no": 24353.6, "rwy": "18/36", "id": "JWY", "use": "PU", "type": "A", "elev_ft": 706.65}, "geometry": {"type": "LineString", "coordinates": [[-96.91179347, 32.46720555], [-96.91325719, 32.44938175]]}}, {"type": "Feature", "properties": {"site_no": 24358.01, "rwy": "18/36", "id": "78XA", "use": "PR", "type": "A", "elev_ft": 1078.0}, "geometry": {"type": "LineString", "coordinates": [[-97.91768611, 32.74115833], [-97.91779166, 32.73725277]]}}, {"type": "Feature", "properties": {"site_no": 24363.0, "rwy": "13/31", "id": "MWL", "use": "PU", "type": "A", "elev_ft": 941.15}, "geometry": {"type": "LineString", "coordinates": [[-98.06428111, 32.78742555], [-98.05063055, 32.77565]]}}, {"type": "Feature", "properties": {"site_no": 24363.0, "rwy": "17/35", "id": "MWL", "use": "PU", "type": "A", "elev_ft": 934.8}, "geometry": {"type": "LineString", "coordinates": [[-98.06399805, 32.78745333], [-98.06414361, 32.77594333]]}}, {"type": "Feature", "properties": {"site_no": 24363.02, "rwy": "H1", "id": "88TS", "use": "PR", "type": "H", "elev_ft": 887.0}, "geometry": {"type": "Point", "coordinates": [-98.06242777, 32.83850277]}}, {"type": "Feature", "properties": {"site_no": 24363.1, "rwy": "H1", "id": "TA32", "use": "PR", "type": "H", "elev_ft": 873.0}, "geometry": {"type": "Point", "coordinates": [-98.06672444, 32.80025416]}}, {"type": "Feature", "properties": {"site_no": 24382.0, "rwy": "12/30", "id": "TX36", "use": "PR", "type": "A", "elev_ft": 745.0}, "geometry": {"type": "LineString", "coordinates": [[-97.59265277, 32.06338888], [-97.58448611, 32.05845833]]}}, {"type": "Feature", "properties": {"site_no": 24393.05, "rwy": "18/36", "id": "TS20", "use": "PR", "type": "A", "elev_ft": 1092.5}, "geometry": {"type": "LineString", "coordinates": [[-97.43208888, 33.65279166], [-97.43214722, 33.6486]]}}, {"type": "Feature", "properties": {"site_no": 24409.25, "rwy": "15/33", "id": "XS05", "use": "PR", "type": "A", "elev_ft": 830.0}, "geometry": {"type": "LineString", "coordinates": [[-97.39966944, 33.07607], [-97.39701, 33.06957361]]}}, {"type": "Feature", "properties": {"site_no": 24421.805, "rwy": "H1", "id": "TE92", "use": "PR", "type": "H", "elev_ft": 667.0}, "geometry": {"type": "Point", "coordinates": [-97.26235555, 33.08383611]}}, {"type": "Feature", "properties": {"site_no": 24422.1, "rwy": "H1", "id": "TE65", "use": "PR", "type": "H", "elev_ft": 615.0}, "geometry": {"type": "Point", "coordinates": [-97.23123611, 32.85916111]}}, {"type": "Feature", "properties": {"site_no": 24422.11, "rwy": "H1", "id": "24TS", "use": "PR", "type": "H", "elev_ft": 561.0}, "geometry": {"type": "Point", "coordinates": [-97.21277777, 32.82638888]}}, {"type": "Feature", "properties": {"site_no": 24498.5, "rwy": "H1", "id": "TT74", "use": "PR", "type": "H", "elev_ft": 1228.0}, "geometry": {"type": "Point", "coordinates": [-98.08302777, 33.10316666]}}, {"type": "Feature", "properties": {"site_no": 24522.01, "rwy": "H1", "id": "6TS9", "use": "PR", "type": "H", "elev_ft": 744.0}, "geometry": {"type": "Point", "coordinates": [-96.76654722, 33.02281666]}}, {"type": "Feature", "properties": {"site_no": 24522.01, "rwy": "H2", "id": "6TS9", "use": "PR", "type": "H", "elev_ft": 744.0}, "geometry": {"type": "Point", "coordinates": [-96.76654722, 33.02244444]}}, {"type": "Feature", "properties": {"site_no": 24522.02, "rwy": "H1", "id": "49TS", "use": "PR", "type": "H", "elev_ft": 697.0}, "geometry": {"type": "Point", "coordinates": [-96.80897777, 33.07243055]}}, {"type": "Feature", "properties": {"site_no": 24522.03, "rwy": "H1", "id": "35TA", "use": "PR", "type": "H", "elev_ft": 669.0}, "geometry": {"type": "Point", "coordinates": [-96.83745833, 33.04353888]}}, {"type": "Feature", "properties": {"site_no": 24522.04, "rwy": "H1", "id": "1TS4", "use": "PR", "type": "H", "elev_ft": 660.0}, "geometry": {"type": "Point", "coordinates": [-96.80148333, 33.06784166]}}, {"type": "Feature", "properties": {"site_no": 24522.05, "rwy": "H1", "id": "6TS5", "use": "PR", "type": "H", "elev_ft": 720.0}, "geometry": {"type": "Point", "coordinates": [-96.81419166, 33.07370277]}}, {"type": "Feature", "properties": {"site_no": 24522.07, "rwy": "H1", "id": "XA79", "use": "PR", "type": "H", "elev_ft": 688.0}, "geometry": {"type": "Point", "coordinates": [-96.78995277, 33.01345277]}}, {"type": "Feature", "properties": {"site_no": 24522.08, "rwy": "H1", "id": "39XA", "use": "PR", "type": "H", "elev_ft": 675.0}, "geometry": {"type": "Point", "coordinates": [-96.80009166, 33.07949444]}}, {"type": "Feature", "properties": {"site_no": 24522.08, "rwy": "H2", "id": "39XA", "use": "PR", "type": "H", "elev_ft": 838.0}, "geometry": {"type": "Point", "coordinates": [-96.80012222, 33.07806111]}}, {"type": "Feature", "properties": {"site_no": 24527.22, "rwy": "17/35", "id": "74T", "use": "PU", "type": "A", "elev_ft": 714.0}, "geometry": {"type": "LineString", "coordinates": [[-97.25458333, 33.18626111], [-97.25464166, 33.17976111]]}}, {"type": "Feature", "properties": {"site_no": 24573.41, "rwy": "H1", "id": "43TT", "use": "PR", "type": "H", "elev_ft": 592.0}, "geometry": {"type": "Point", "coordinates": [-96.86968888, 33.22135555]}}, {"type": "Feature", "properties": {"site_no": 24586.9, "rwy": "18/36", "id": "T14", "use": "PU", "type": "A", "elev_ft": 468.0}, "geometry": {"type": "LineString", "coordinates": [[-96.09584444, 32.95678333], [-96.09594166, 32.94820833]]}}, {"type": "Feature", "properties": {"site_no": 24587.65, "rwy": "15/33", "id": "TT12", "use": "PR", "type": "A", "elev_ft": 711.0}, "geometry": {"type": "LineString", "coordinates": [[-97.69503888, 32.27478055], [-97.69177222, 32.27014166]]}}, {"type": "Feature", "properties": {"site_no": 24609.28, "rwy": "H1", "id": "XA40", "use": "PR", "type": "H", "elev_ft": 615.0}, "geometry": {"type": "Point", "coordinates": [-96.66561944, 32.99619444]}}, {"type": "Feature", "properties": {"site_no": 24609.29, "rwy": "H1", "id": "TA99", "use": "PR", "type": "H", "elev_ft": 652.0}, "geometry": {"type": "Point", "coordinates": [-96.72606944, 32.97513333]}}, {"type": "Feature", "properties": {"site_no": 24638.0, "rwy": "17/35", "id": "F46", "use": "PU", "type": "A", "elev_ft": 561.2}, "geometry": {"type": "LineString", "coordinates": [[-96.43619777, 32.93518944], [-96.43475472, 32.92600111]]}}, {"type": "Feature", "properties": {"site_no": 24638.12, "rwy": "H1", "id": "13XS", "use": "PR", "type": "H", "elev_ft": 532.0}, "geometry": {"type": "Point", "coordinates": [-96.46455833, 32.88453888]}}, {"type": "Feature", "properties": {"site_no": 24663.7, "rwy": "H1", "id": "XA11", "use": "PR", "type": "H", "elev_ft": 476.0}, "geometry": {"type": "Point", "coordinates": [-96.50846944, 32.917275]}}, {"type": "Feature", "properties": {"site_no": 24664.01, "rwy": "04/22", "id": "33XA", "use": "PR", "type": "A", "elev_ft": 539.0}, "geometry": {"type": "LineString", "coordinates": [[-96.31151944, 32.85423888], [-96.30506111, 32.85967222]]}}, {"type": "Feature", "properties": {"site_no": 24664.12, "rwy": "H1", "id": "XS89", "use": "PR", "type": "H", "elev_ft": 560.0}, "geometry": {"type": "Point", "coordinates": [-96.28203333, 32.97930277]}}, {"type": "Feature", "properties": {"site_no": 24664.13, "rwy": "05/23", "id": "84TT", "use": "PR", "type": "U", "elev_ft": 490.5}, "geometry": {"type": "LineString", "coordinates": [[-96.23963422, 32.89962072], [-96.236112, 32.90235]]}}, {"type": "Feature", "properties": {"site_no": 24726.18, "rwy": "18/36", "id": "XA03", "use": "PR", "type": "A", "elev_ft": 877.0}, "geometry": {"type": "LineString", "coordinates": [[-97.27098611, 33.43083333], [-97.27157222, 33.42467222]]}}, {"type": "Feature", "properties": {"site_no": 24779.0, "rwy": "16/34", "id": "SWI", "use": "PU", "type": "A", "elev_ft": 728.95}, "geometry": {"type": "LineString", "coordinates": [[-96.58771183, 33.62946686], [-96.58454658, 33.61879825]]}}, {"type": "Feature", "properties": {"site_no": 24779.01, "rwy": "H1", "id": "51TS", "use": "PR", "type": "H", "elev_ft": 811.0}, "geometry": {"type": "Point", "coordinates": [-96.6243, 33.63721944]}}, {"type": "Feature", "properties": {"site_no": 24779.1, "rwy": "H1", "id": "8TA2", "use": "PR", "type": "H", "elev_ft": 725.0}, "geometry": {"type": "Point", "coordinates": [-96.61018055, 33.64942777]}}, {"type": "Feature", "properties": {"site_no": 24812.5, "rwy": "05/23", "id": "3TX", "use": "PU", "type": "A", "elev_ft": 882.0}, "geometry": {"type": "LineString", "coordinates": [[-97.35504166, 33.39191388], [-97.35064166, 33.39430555]]}}, {"type": "Feature", "properties": {"site_no": 24812.5, "rwy": "18/36", "id": "3TX", "use": "PU", "type": "A", "elev_ft": 879.0}, "geometry": {"type": "LineString", "coordinates": [[-97.35393611, 33.39681944], [-97.35483055, 33.38860555]]}}, {"type": "Feature", "properties": {"site_no": 24812.6, "rwy": "18/36", "id": "T28", "use": "PU", "type": "A", "elev_ft": 900.0}, "geometry": {"type": "LineString", "coordinates": [[-97.43894166, 33.35608055], [-97.43935277, 33.3528]]}}, {"type": "Feature", "properties": {"site_no": 24827.955, "rwy": "H1", "id": "TS31", "use": "PR", "type": "H", "elev_ft": 633.3}, "geometry": {"type": "Point", "coordinates": [-97.14708833, 32.95717805]}}, {"type": "Feature", "properties": {"site_no": 24870.0, "rwy": "H1", "id": "TA69", "use": "PR", "type": "H", "elev_ft": 500.0}, "geometry": {"type": "Point", "coordinates": [-96.58345, 32.81565555]}}, {"type": "Feature", "properties": {"site_no": 24870.01, "rwy": "H1", "id": "23TE", "use": "PR", "type": "H", "elev_ft": 492.0}, "geometry": {"type": "Point", "coordinates": [-96.56813055, 32.77988888]}}, {"type": "Feature", "properties": {"site_no": 24899.0, "rwy": "18/36", "id": "TRL", "use": "PU", "type": "A", "elev_ft": 465.1}, "geometry": {"type": "LineString", "coordinates": [[-96.2671105, 32.71537616], [-96.26707933, 32.70161541]]}}, {"type": "Feature", "properties": {"site_no": 24926.85, "rwy": "H1", "id": "XA69", "use": "PR", "type": "H", "elev_ft": 1070.0}, "geometry": {"type": "Point", "coordinates": [-97.96944444, 32.33611111]}}, {"type": "Feature", "properties": {"site_no": 24930.02, "rwy": "H1", "id": "TT15", "use": "PR", "type": "H", "elev_ft": 672.0}, "geometry": {"type": "Point", "coordinates": [-96.2737185, 33.44935444]}}, {"type": "Feature", "properties": {"site_no": 24961.0, "rwy": "18/36", "id": "X16", "use": "PU", "type": "A", "elev_ft": 673.0}, "geometry": {"type": "LineString", "coordinates": [[-97.1224468, 33.47699683], [-97.12243266, 33.47026447]]}}, {"type": "Feature", "properties": {"site_no": 24961.01, "rwy": "18/36", "id": "54XA", "use": "PR", "type": "A", "elev_ft": 780.0}, "geometry": {"type": "LineString", "coordinates": [[-97.21111111, 33.49472222], [-97.21111111, 33.48833333]]}}, {"type": "Feature", "properties": {"site_no": 24963.82, "rwy": "18/36", "id": "TX16", "use": "PR", "type": "A", "elev_ft": 688.0}, "geometry": {"type": "LineString", "coordinates": [[-96.49823333, 33.40258333], [-96.49845555, 33.39770555]]}}, {"type": "Feature", "properties": {"site_no": 24966.88, "rwy": "14/32", "id": "9XA4", "use": "PR", "type": "A", "elev_ft": 644.5}, "geometry": {"type": "LineString", "coordinates": [[-97.04143972, 32.35808133], [-97.03827469, 32.35337758]]}}, {"type": "Feature", "properties": {"site_no": 24983.54, "rwy": "18/36", "id": "74TE", "use": "PR", "type": "A", "elev_ft": 936.5}, "geometry": {"type": "LineString", "coordinates": [[-97.79426491, 32.0671328], [-97.79538972, 32.05565333]]}}, {"type": "Feature", "properties": {"site_no": 24986.19, "rwy": "H1", "id": "8TE3", "use": "PR", "type": "H", "elev_ft": 668.0}, "geometry": {"type": "Point", "coordinates": [-96.85694444, 32.42722222]}}, {"type": "Feature", "properties": {"site_no": 24986.29, "rwy": "10/28", "id": "51TE", "use": "PR", "type": "A", "elev_ft": 548.6}, "geometry": {"type": "LineString", "coordinates": [[-96.79317, 32.47316], [-96.786616, 32.471799]]}}, {"type": "Feature", "properties": {"site_no": 24988.11, "rwy": "H1", "id": "98TA", "use": "PR", "type": "H", "elev_ft": 1050.0}, "geometry": {"type": "Point", "coordinates": [-97.78647777, 32.74771666]}}, {"type": "Feature", "properties": {"site_no": 24988.2, "rwy": "18/36", "id": "WEA", "use": "PU", "type": "A", "elev_ft": 985.6}, "geometry": {"type": "LineString", "coordinates": [[-97.6824215, 32.75026052], [-97.68252, 32.741197]]}}, {"type": "Feature", "properties": {"site_no": 24988.22, "rwy": "H1", "id": "2TS7", "use": "PR", "type": "H", "elev_ft": 1050.0}, "geometry": {"type": "Point", "coordinates": [-97.809175, 32.77611944]}}, {"type": "Feature", "properties": {"site_no": 24988.26, "rwy": "17/35", "id": "77TX", "use": "PR", "type": "A", "elev_ft": 978.0}, "geometry": {"type": "LineString", "coordinates": [[-97.839975, 32.68895277], [-97.83950833, 32.68375555]]}}, {"type": "Feature", "properties": {"site_no": 25022.65, "rwy": "18/36", "id": "T29", "use": "PU", "type": "A", "elev_ft": 760.0}, "geometry": {"type": "LineString", "coordinates": [[-96.94091388, 33.63371666], [-96.94102777, 33.62713611]]}}, {"type": "Feature", "properties": {"site_no": 25038.21, "rwy": "H1", "id": "8TA4", "use": "PR", "type": "H", "elev_ft": 856.0}, "geometry": {"type": "Point", "coordinates": [-97.66169444, 32.74522222]}}, {"type": "Feature", "properties": {"site_no": 25039.1, "rwy": "17/35", "id": "76F", "use": "PU", "type": "A", "elev_ft": 512.0}, "geometry": {"type": "LineString", "coordinates": [[-95.98413444, 32.68586402], [-95.98412025, 32.67698425]]}}, {"type": "Feature", "properties": {"site_no": 25039.18, "rwy": "04/22", "id": "8TE1", "use": "PR", "type": "A", "elev_ft": 495.5}, "geometry": {"type": "LineString", "coordinates": [[-96.04633611, 32.74625], [-96.04156388, 32.75065277]]}}, {"type": "Feature", "properties": {"site_no": 25063.11, "rwy": "14/32", "id": "34TA", "use": "PR", "type": "A", "elev_ft": 596.0}, "geometry": {"type": "LineString", "coordinates": [[-96.10277777, 33.35194444], [-96.09202833, 33.33981716]]}}]}